{"type":"FeatureCollection","name":"osm-countries-0-001","crs":{"type":"name","properties":{"name":"urn:ogc:def:crs:OGC:1.3:CRS84"}},"features":[{"type":"Feature","properties":{"tags":{"ISO3166-1":"PL","ISO3166-1:alpha2":"PL","ISO3166-1:alpha3":"POL","ISO3166-1:numeric":"616","TMC:cid_58:tabcd_1:Class":"Area","TMC:cid_58:tabcd_1:LCLversion":"8.00","TMC:cid_58:tabcd_1:LocationCode":"8","admin_level":"2","alt_name:ar":"بولونيا","alt_name:eo":"Polio;Polujo","boundary":"administrative","currency":"PLN","daytime_headlight":"yes","default_language":"pl","flag":"http://upload.wikimedia.org/wikipedia/commons/1/12/Flag_of_Poland.svg","int_name":"Polska","long_name:ar":"Rzeczpospolita Polska","name":"Polska","name:ab":"Полша","name:ace":"Polandia","name:af":"Pole","name:ak":"Poland","name:als":"Polen","name:am":"ፖላንድ","name:an":"Polonia","name:ang":"Polaland","name:ar":"بولندا","name:arc":"ܦܘܠܢܕ","name:arz":"بولاندا","name:ast":"Polonia","name:ay":"Puluña","name:az":"Polşa","name:ba":"Польша","name:bar":"Poin","name:bat-smg":"Lėnkėjė","name:bcl":"Polonya","name:be":"Польшча","name:be-tarask":"Польшча","name:bg":"Полша","name:bi":"Poland","name:bn":"পোল্যান্ড","name:bo":"ཕོ་ལན།","name:bpy":"পোল্যান্ড","name:br":"Polonia","name:bs":"Poljska","name:bxr":"Польш","name:ca":"Polònia","name:cdo":"Pŏ̤-làng","name:ce":"Польша","name:ceb":"Polonya","name:chr":"ᏉᎳᏂ","name:chy":"Poland","name:ckb":"پۆڵەندا","name:co":"Polonia","name:crh":"Lehistan","name:cs":"Polsko","name:csb":"Pòlskô","name:cu":"Пол҄ьска","name:cv":"Польша","name:cy":"Gwlad Pwyl","name:da":"Polen","name:dative":"Polsce","name:de":"Polen","name:diq":"Polonya","name:dsb":"Pólska","name:dv":"ޕޮލެންޑު","name:ee":"Poland","name:el":"Πολωνία","name:eml":"Pulógna","name:en":"Poland","name:eo":"Pollando","name:es":"Polonia","name:et":"Poola","name:eu":"Polonia","name:ext":"Poloña","name:fa":"لهستان","name:ff":"Poloonya","name:fi":"Puola","name:fo":"Pólland","name:fr":"Pologne","name:frp":"Pologne","name:frr":"Poolen","name:fur":"Polonie","name:fy":"Poalen","name:ga":"An Pholainn","name:gag":"Polşa","name:gan":"波蘭","name:gd":"A' Phòlainn","name:gl":"Polonia","name:gn":"Poloña","name:gu":"પોલેંડ","name:gv":"Yn Pholynn","name:ha":"Poland","name:hak":"Pô-làn","name:haw":"Pōlani","name:he":"פולין","name:hi":"पोलैंड","name:hif":"Poland","name:hr":"Poljska","name:hsb":"Pólska","name:ht":"Polòy","name:hu":"Lengyelország","name:hy":"Լեհաստան","name:ia":"Polonia","name:id":"Polandia","name:ie":"Polonia","name:ig":"Poland","name:ilo":"Polonia","name:io":"Polonia","name:is":"Pólland","name:it":"Polonia","name:iu":"ᐳᓚᓐᑦ","name:ja":"ポーランド","name:jbo":"polskas","name:jv":"Polandia","name:ka":"პოლონეთი","name:kaa":"Polsha","name:kbd":"Лахь жылэ","name:kg":"Pologne","name:kk":"Польша","name:kl":"Poleni","name:km":"ប្រទេសប៉ូឡូញ","name:kn":"ಪೋಲೆಂಡ್","name:ko":"폴란드","name:koi":"Польска","name:krc":"Польша","name:ku":"Polonya","name:kv":"Польша","name:kw":"Poloni","name:ky":"Польша","name:la":"Polonia","name:lad":"Polonia","name:lb":"Polen","name:lez":"Польша","name:lg":"Bupoolo","name:li":"Pole","name:lij":"Polonia","name:lmo":"Pulònia","name:ln":"Poloni","name:lt":"Lenkija","name:ltg":"Puoleja","name:lv":"Polija","name:lzh":"波蘭","name:map-bms":"Polandia","name:mdf":"Полень мастор","name:mg":"Polonia","name:mhr":"Польшо","name:mi":"Pōrana","name:mk":"Полска","name:ml":"പോളണ്ട്","name:mn":"Польш","name:mr":"पोलंड","name:mrj":"Польша","name:ms":"Poland","name:mt":"Polonja","name:mwl":"Polónia","name:my":"ပိုလန်နိုင်ငံ","name:mzn":"لهستون","name:na":"Poran","name:nah":"Polonia","name:nan":"Polska","name:nap":"Pulonnia","name:nds":"Polen","name:nds-nl":"Pooln","name:ne":"पोल्याण्ड","name:nl":"Polen","name:nn":"Polen","name:no":"Polen","name:nov":"Polonia","name:nrm":"Polongne","name:nv":"Póolish Dineʼé Bikéyah","name:oc":"Polonha","name:or":"ପୋଲାଣ୍ଡ","name:os":"Польшæ","name:pa":"ਪੋਲੈਂਡ","name:pam":"Polonya","name:pap":"Polonia","name:pcd":"Polonne","name:pdc":"Polen","name:pfl":"Pole","name:pih":"Poeland","name:pl":"Polska","name:pms":"Polònia","name:pnb":"پولینڈ","name:pnt":"Πολωνία","name:ps":"پولنډ","name:pt":"Polónia","name:qu":"Pulunya","name:rm":"Pologna","name:rmy":"Polska","name:rn":"Polonia","name:ro":"Polonia","name:roa-tara":"Pulonie","name:ru":"Польша","name:rue":"Польско","name:rw":"Polonye","name:sa":"पोलैंड","name:sah":"Польша","name:sc":"Polonia","name:scn":"Pulonia","name:sco":"Poland","name:se":"Polska","name:sg":"Pölôni","name:sh":"Poljska","name:si":"පෝලන්තය","name:sk":"Poľsko","name:sl":"Poljska","name:sm":"Polagi","name:smn":"Puola","name:sms":"Puola","name:so":"Boland","name:sq":"Polonia","name:sr":"Пољска","name:ss":"IPholandi","name:st":"Poland","name:stq":"Polen","name:su":"Polandia","name:sv":"Polen","name:sw":"Poland","name:szl":"Polska","name:ta":"போலந்து","name:te":"పోలాండ్","name:tet":"Polónia","name:tg":"Лаҳистон","name:th":"ประเทศโปแลนด์","name:tk":"Polşa","name:tl":"Polonya","name:tok":"ma Posuka","name:tpi":"Polan","name:tr":"Polonya","name:tt":"Польша","name:tzl":"Polognh","name:udm":"Польша","name:ug":"پولشا","name:uk":"Польща","name:ur":"پولینڈ","name:uz":"Polsha","name:vec":"Połonia","name:vep":"Pol'šanma","name:vi":"Ba Lan","name:vls":"Pooln","name:vo":"Polän","name:vro":"Poola","name:wa":"Pologne","name:war":"Polonya","name:wo":"Poloñ","name:wuu":"波兰","name:xal":"Польшин Орн","name:xmf":"პოლონეთი","name:yi":"פוילן","name:yo":"Polandi","name:yue":"波蘭","name:zea":"Poôl'n","name:zh":"波兰","name:zu":"IPolandi","official_name":"Rzeczpospolita Polska","official_name:ar":"الجمهورية البولندية","official_name:be":"Рэспубліка Польшча","official_name:be-tarask":"Рэспубліка Польшча","official_name:cs":"Polská republika","official_name:de":"Republik Polen","official_name:el":"Δημοκρατία της Πολωνίας","official_name:en":"Republic of Poland","official_name:eo":"Pola Respubliko","official_name:es":"República de Polonia","official_name:fi":"Puolan tasavalta","official_name:fr":"République de Pologne","official_name:pl":"Rzeczpospolita Polska","official_name:ru":"Республика Польша","official_name:sr":"Република Пољска","short_name":"RP","short_name:be":"РП","source":"geoportal.gov.pl;PRG;Urząd Morski w Gdyni;Ustawa o obszarach morskich Rzeczypospolitej Polskiej i Administracji Morskiej;Act on maritime areas of the Republic of Poland and Maritime Administration;United Nations Convention on the Law of the Sea","teryt:terc":"1","timezone":"Europe/Warsaw","type":"boundary","wikidata":"Q36","wikipedia":"pl:Polska"},"timestamp":1700439044.0,"representative_point":{"type":"Point","coordinates":[19.19545726049349,52.01902545]}},"geometry":{"type":"Polygon","coordinates":[[[14.0696389,54.2776417],[14.1680194,54.2388],[14.2422083,53.9877278],[14.2260972,53.9277306],[14.2076583,53.9158694],[14.1911069,53.9157656],[14.1853296,53.9140916],[14.185329,53.9119628],[14.2057721,53.9105519],[14.2039194,53.9066221],[14.2122597,53.900289],[14.2154008,53.8808073],[14.2123444,53.8674472],[14.2835972,53.7722972],[14.2669556,53.7534889],[14.2735389,53.74435],[14.2715361,53.7406611],[14.2729972,53.7378361],[14.2683389,53.7084417],[14.271926,53.7058471],[14.2677342,53.7046247],[14.2668113,53.6987001],[14.2719658,53.693603],[14.2721165,53.6894996],[14.2750888,53.6889458],[14.27486,53.6873106],[14.2836998,53.6825852],[14.281164,53.6729554],[14.2706609,53.6666774],[14.272218,53.663409],[14.279081,53.6630851],[14.2847917,53.6586917],[14.2838985,53.6344457],[14.3111123,53.6184586],[14.3169455,53.6180635],[14.3118808,53.5797268],[14.3138581,53.5650795],[14.3026103,53.5534048],[14.3072504,53.5514015],[14.3057479,53.543567],[14.3158585,53.5369428],[14.3193659,53.5298297],[14.3157825,53.5251476],[14.3269366,53.503824],[14.3506549,53.4960036],[14.3541997,53.4886251],[14.3535223,53.4822756],[14.3569602,53.4700493],[14.3563259,53.4620394],[14.3580532,53.4573277],[14.3712744,53.4564396],[14.3718858,53.4478199],[14.3686646,53.4326036],[14.3697624,53.4239789],[14.3730061,53.4182353],[14.3733277,53.4089502],[14.3892793,53.3878255],[14.3948439,53.3757201],[14.3953797,53.3692443],[14.3931309,53.3585639],[14.3902904,53.3537477],[14.4055017,53.3470804],[14.4083265,53.3357274],[14.415448,53.324368],[14.4068032,53.3087149],[14.4149147,53.3019391],[14.421204,53.2761361],[14.445247,53.2744351],[14.4443111,53.2724281],[14.4505651,53.262252],[14.4495951,53.2594551],[14.4427961,53.2558061],[14.4352119,53.2487131],[14.433742,53.2421201],[14.430807,53.2391331],[14.4212069,53.234281],[14.408503,53.2232011],[14.4058561,53.2107291],[14.3993229,53.2068031],[14.385792,53.2049971],[14.3772679,53.201752],[14.374582,53.1878171],[14.369755,53.181809],[14.3662579,53.1719881],[14.371109,53.1572911],[14.3872751,53.142392],[14.3831009,53.1365571],[14.3837849,53.1343371],[14.3816579,53.1313749],[14.379026,53.1129011],[14.3701679,53.104599],[14.371225,53.0945611],[14.366719,53.080612],[14.358655,53.071993],[14.355741,53.063456],[14.352414,53.0588761],[14.348751,53.056827],[14.3485689,53.054717],[14.3379831,53.046577],[14.3233839,53.0416441],[14.312334,53.0355191],[14.306848,53.029745],[14.2916152,53.0200081],[14.2685539,53.0099551],[14.25896,53.002981],[14.2506909,53.000669],[14.2355989,52.9931921],[14.2282121,52.992347],[14.218356,52.9887271],[14.2068529,52.9875431],[14.1895101,52.9797491],[14.17278,52.975581],[14.168736,52.9736381],[14.1662878,52.96856],[14.1622201,52.9652701],[14.149455,52.9636531],[14.1436579,52.9613691],[14.143127,52.9577631],[14.1388419,52.951776],[14.144131,52.9449001],[14.142192,52.9387511],[14.1426471,52.9332471],[14.145388,52.9286791],[14.1466781,52.9207621],[14.1501989,52.9162781],[14.1523209,52.900646],[14.1615938,52.8880971],[14.1582269,52.8813061],[14.1577089,52.874757],[14.1489298,52.8664121],[14.1298459,52.8527291],[14.1229908,52.844028],[14.12293,52.837661],[14.1247567,52.833469],[14.1300839,52.828318],[14.1432639,52.8238511],[14.2063968,52.819349],[14.2174898,52.8168681],[14.2265369,52.810289],[14.2300768,52.8050231],[14.2409019,52.800142],[14.2536818,52.789097],[14.2788068,52.7744591],[14.304994,52.7655141],[14.3216859,52.7626351],[14.338897,52.7547071],[14.351042,52.7515101],[14.3608769,52.740618],[14.3734938,52.7366601],[14.3837231,52.7256161],[14.4048909,52.711389],[14.4134938,52.700834],[14.4239928,52.6961761],[14.4289948,52.690647],[14.4291049,52.6864131],[14.4326819,52.681683],[14.4355549,52.680036],[14.4500608,52.678422],[14.4577508,52.673931],[14.461031,52.664974],[14.4651029,52.661322],[14.5096759,52.6416061],[14.5274948,52.6371629],[14.5549899,52.626193],[14.5673192,52.6236888],[14.5816497,52.6156018],[14.5962113,52.6106429],[14.609414,52.5980025],[14.6114712,52.5895401],[14.6142877,52.5862639],[14.6390136,52.5733174],[14.6395116,52.5691859],[14.637479,52.5665272],[14.6186521,52.557181],[14.6153787,52.5540644],[14.6136653,52.5447224],[14.6063256,52.5374131],[14.6038381,52.5310308],[14.6104905,52.5188353],[14.6122974,52.5107862],[14.6170548,52.5073686],[14.6250306,52.5055979],[14.6323097,52.5012805],[14.6353494,52.4959741],[14.6339257,52.4914836],[14.6242424,52.4822945],[14.6128203,52.476832],[14.6087608,52.4638329],[14.5999918,52.4590708],[14.5939838,52.4525545],[14.5856222,52.4485459],[14.5788254,52.4415686],[14.5594594,52.4390887],[14.5481154,52.4323373],[14.5439612,52.425505],[14.5465301,52.4126915],[14.5355281,52.4007287],[14.5343762,52.3949997],[14.5514734,52.375667],[14.5529658,52.370923],[14.5525283,52.3519878],[14.5626074,52.339391],[14.5614399,52.3278059],[14.5749323,52.3226189],[14.5777433,52.3194529],[14.5780759,52.3128892],[14.5848295,52.3063473],[14.583445,52.3016589],[14.5744976,52.2952201],[14.5752882,52.2890477],[14.5864567,52.2843088],[14.5892982,52.2816125],[14.5919141,52.2753664],[14.5986799,52.2723256],[14.6195197,52.2707468],[14.6407805,52.2638597],[14.6627631,52.2618114],[14.6742794,52.258518],[14.689475,52.2567582],[14.6988057,52.2523481],[14.7051845,52.2429511],[14.7155504,52.2361278],[14.7160287,52.2327561],[14.7128671,52.2281782],[14.7125452,52.2222375],[14.708392,52.2116715],[14.6995983,52.2037482],[14.6882788,52.197932],[14.6858141,52.193906],[14.6879381,52.1892951],[14.7028631,52.1784994],[14.7054009,52.173197],[14.7055672,52.1689142],[14.701957,52.1630913],[14.680016,52.1433834],[14.6794487,52.1402495],[14.6841094,52.1256432],[14.6818121,52.1156403],[14.6874394,52.1076412],[14.7002558,52.0981084],[14.7208928,52.094625],[14.741175,52.0851873],[14.7458624,52.0814918],[14.7518448,52.0717939],[14.7578,52.0680297],[14.759094,52.065383],[14.756702,52.060161],[14.745449,52.054332],[14.7468258,52.0502066],[14.7458683,52.0465394],[14.7498591,52.0430343],[14.7475285,52.0366419],[14.7484224,52.031928],[14.7402172,52.0287557],[14.7415102,52.0235596],[14.7265843,52.0137258],[14.7252151,52.0082063],[14.7140288,52.0036828],[14.7189052,51.9997147],[14.7216594,51.9944745],[14.7175619,51.9887887],[14.7162525,51.9825599],[14.7114664,51.979619],[14.7070754,51.9796121],[14.7048546,51.976008],[14.7069034,51.9735673],[14.7072324,51.9657165],[14.7134859,51.9575091],[14.7189602,51.9552818],[14.7212866,51.9513151],[14.7189944,51.9456403],[14.7193663,51.9419306],[14.712555,51.9367892],[14.7066454,51.9354945],[14.7033945,51.930887],[14.7055167,51.9236617],[14.702198,51.9210024],[14.6987665,51.9132741],[14.691023,51.907773],[14.6941836,51.9018952],[14.6808864,51.8952364],[14.6746104,51.8944701],[14.6734816,51.8931884],[14.6749038,51.8897749],[14.6628032,51.8902347],[14.6619453,51.8870717],[14.6548339,51.8837971],[14.6521474,51.8737906],[14.6464132,51.8719786],[14.6438847,51.8671973],[14.6349672,51.8655384],[14.6243792,51.858191],[14.6111046,51.8571313],[14.6071538,51.8520417],[14.6108111,51.8492805],[14.6124817,51.845501],[14.6093662,51.844971],[14.6083503,51.8474815],[14.6049865,51.8480951],[14.6032256,51.8470352],[14.6059347,51.8426418],[14.6044673,51.8398661],[14.6016453,51.839629],[14.5962723,51.8422094],[14.5904025,51.8384573],[14.5919377,51.8355418],[14.591125,51.8330865],[14.5931794,51.8300591],[14.5898156,51.8271012],[14.5903897,51.8204437],[14.5969142,51.817527],[14.600752,51.8126702],[14.601181,51.8086085],[14.6071862,51.8037926],[14.6133945,51.804016],[14.6162165,51.80188],[14.6238697,51.8004281],[14.6321324,51.8015729],[14.636309,51.7974683],[14.6454747,51.7955276],[14.6490911,51.787129],[14.6538602,51.78369],[14.652675,51.779655],[14.654995,51.774813],[14.654711,51.767595],[14.651302,51.764811],[14.6505671,51.7616711],[14.6640897,51.7571335],[14.6573496,51.7533273],[14.6600674,51.7484361],[14.6563332,51.7407592],[14.6615127,51.7372525],[14.6681692,51.725857],[14.6772034,51.7231036],[14.6798022,51.7179243],[14.691552,51.7080099],[14.701237,51.7048481],[14.7283506,51.6887282],[14.7362521,51.6885742],[14.7394708,51.6837844],[14.7368391,51.68075],[14.7372536,51.6790093],[14.7471736,51.6759453],[14.7493235,51.6705024],[14.7528679,51.6680941],[14.7531691,51.664311],[14.7577473,51.6613459],[14.7548951,51.6555155],[14.750993,51.6526116],[14.7559339,51.6455378],[14.7540289,51.6413198],[14.7561419,51.6325628],[14.7533399,51.6278728],[14.7632929,51.6192498],[14.7658029,51.6114478],[14.7651199,51.6074698],[14.7608302,51.6024167],[14.7533912,51.599357],[14.7521819,51.5957208],[14.741962,51.5929382],[14.7393749,51.5896568],[14.7307217,51.5845027],[14.7270442,51.5750092],[14.7113339,51.5627425],[14.7164714,51.5551544],[14.7239916,51.5536794],[14.7293572,51.5499481],[14.7311906,51.5442625],[14.7262944,51.5390704],[14.729175,51.5357083],[14.7289809,51.5315432],[14.7338756,51.5290299],[14.7356207,51.5259448],[14.7429201,51.5252811],[14.7513739,51.5218238],[14.760826,51.5232998],[14.7652599,51.5189293],[14.783682,51.5184658],[14.7880838,51.5170612],[14.796295,51.5178016],[14.7990815,51.5152416],[14.8051904,51.514457],[14.8117167,51.5061133],[14.8188424,51.5077386],[14.8321801,51.5038877],[14.8349156,51.4994568],[14.8382015,51.4988353],[14.840117,51.4957898],[14.8446163,51.4947117],[14.8521184,51.4893899],[14.8640783,51.4906791],[14.8717211,51.4846744],[14.8874452,51.4879554],[14.8915673,51.4843595],[14.8983313,51.4819755],[14.9072225,51.4840123],[14.916297,51.483715],[14.924485,51.480657],[14.926417,51.473307],[14.947264,51.472024],[14.951899,51.468987],[14.956645,51.462968],[14.955925,51.458427],[14.9642089,51.4513326],[14.96664,51.446194],[14.974269,51.441572],[14.973596,51.436556],[14.970615,51.432367],[14.963733,51.434261],[14.958703,51.431343],[14.961271,51.428376],[14.96618,51.426768],[14.964113,51.423281],[14.967154,51.416987],[14.964792,51.412395],[14.95866,51.409909],[14.963177,51.40774],[14.9677818,51.4028741],[14.969201,51.398255],[14.9617076,51.3974981],[14.9583108,51.3953976],[14.9624927,51.3947566],[14.9657714,51.3915241],[14.9646655,51.3865421],[14.9690199,51.3822076],[14.9689283,51.379279],[14.9744111,51.3784248],[14.977659,51.375672],[14.9837271,51.3739052],[14.9773762,51.3692453],[14.977333,51.36568],[14.9651366,51.3611866],[14.9668287,51.3593344],[14.9728706,51.3597661],[14.9762374,51.3571194],[14.9757828,51.3541747],[14.977573,51.3530526],[14.9769173,51.3511577],[14.9786059,51.3481339],[14.9769486,51.3464432],[14.9776938,51.3416074],[14.9807475,51.3398458],[14.9814985,51.3346659],[14.9855489,51.3325994],[14.9860776,51.3293811],[14.9932663,51.3287112],[14.9923463,51.3238366],[14.9933865,51.3228166],[15.0092822,51.3166828],[15.0092073,51.3140588],[15.0067729,51.3113821],[15.0127531,51.3085202],[15.014004,51.3050174],[15.0123255,51.3009795],[15.021759,51.3006107],[15.0291063,51.2968212],[15.0295589,51.2946584],[15.033354,51.2940893],[15.0319764,51.2877417],[15.0324881,51.2848527],[15.0353583,51.2829229],[15.0342609,51.2776682],[15.0417476,51.2742522],[15.0414349,51.2720479],[15.0367523,51.2704562],[15.0382268,51.2669617],[15.0360338,51.2646611],[15.0360736,51.2617285],[15.0381711,51.2584962],[15.0249167,51.2538536],[15.0233006,51.250585],[15.0260581,51.2489846],[15.0294584,51.2513897],[15.0314666,51.2481877],[15.0378516,51.2439906],[15.0334844,51.2409737],[15.0286177,51.2417897],[15.0267984,51.2395232],[15.0289269,51.2372384],[15.0234665,51.2351045],[15.0266604,51.2340376],[15.0259368,51.2320146],[15.0160637,51.2272547],[15.0182234,51.2209768],[15.0160486,51.2172045],[15.0172132,51.2153648],[15.0098306,51.2135683],[15.0100778,51.2112981],[15.0131839,51.2105588],[15.0129126,51.2081708],[15.0076068,51.2045076],[15.0087427,51.2013843],[15.0077219,51.199545],[15.0141311,51.1982678],[15.0142159,51.1956677],[15.0047396,51.1908795],[15.0087717,51.182327],[15.0015472,51.1723884],[15.005045,51.167716],[14.9931187,51.1624351],[14.9942762,51.1573507],[15.0009478,51.1499474],[14.9963706,51.1440071],[14.9905269,51.1427892],[14.9953646,51.1368715],[14.9967617,51.131557],[14.9947397,51.1238732],[14.9977581,51.1227643],[14.9890059,51.1165685],[14.9828678,51.1178868],[14.980878,51.1161089],[14.9826221,51.1133707],[14.9799312,51.1105656],[14.9811985,51.1091137],[14.9780519,51.1081074],[14.9839711,51.1021078],[14.9827701,51.0993254],[14.9838142,51.0972756],[14.980242,51.0957549],[14.9827489,51.0949087],[14.9818491,51.0932256],[14.9839338,51.0908892],[14.9797186,51.0897671],[14.9800799,51.0872666],[14.9762769,51.0868574],[14.9775892,51.0854993],[14.9760431,51.0841306],[14.9778068,51.0835242],[14.97686,51.0816017],[14.9786025,51.0804906],[14.9793151,51.0770378],[14.9676286,51.0711115],[14.9680541,51.0695342],[14.9713935,51.0693643],[14.9698868,51.0673934],[14.9712392,51.0657104],[14.9678983,51.0640199],[14.9630414,51.0580137],[14.964656,51.050123],[14.9613765,51.0499663],[14.9578524,51.0467741],[14.953678,51.0467078],[14.9519226,51.042443],[14.9485055,51.0426242],[14.9498255,51.0410211],[14.948112,51.0393085],[14.9517261,51.0375163],[14.9465191,51.0314971],[14.9491664,51.0309819],[14.9476558,51.0282764],[14.9453536,51.0263896],[14.9405392,51.0263667],[14.9423996,51.0237139],[14.9392437,51.0235913],[14.9399492,51.0206619],[14.9374776,51.0222169],[14.9350882,51.0201284],[14.935832,51.0181008],[14.9393078,51.0170239],[14.9379879,51.0114645],[14.9343032,51.0077048],[14.9348913,51.0061561],[14.9283934,50.9974523],[14.9203673,50.9978525],[14.9171851,50.9951933],[14.9174844,50.9899814],[14.9202927,50.9879324],[14.9183,50.9825625],[14.9194302,50.9753468],[14.90308,50.9717195],[14.9040335,50.9674903],[14.8995936,50.9633069],[14.9038711,50.9612175],[14.8976165,50.9593921],[14.8929635,50.9495841],[14.8953935,50.9472658],[14.8965556,50.9406457],[14.8907688,50.9352117],[14.8768544,50.9323512],[14.868089,50.9179015],[14.8516363,50.9105706],[14.8434091,50.900653],[14.8223876,50.8880439],[14.8174581,50.8805245],[14.8193015,50.8742069],[14.8233506,50.8705701],[14.8311998,50.8728937],[14.8405481,50.8690374],[14.847023,50.8702523],[14.8554152,50.8687426],[14.8637916,50.8705122],[14.8670811,50.8772313],[14.8743541,50.8771259],[14.8972774,50.8673551],[14.900165,50.8759624],[14.9052214,50.8755779],[14.9373618,50.8694157],[14.9480452,50.8642321],[14.9592565,50.8619308],[14.9866946,50.8693013],[15.0019261,50.8687781],[15.0023464,50.8745188],[14.9985044,50.8878021],[14.9939779,50.8918236],[14.9966116,50.8949191],[14.9961795,50.9006365],[15.0068171,50.9072249],[14.9991535,50.9068256],[14.9984686,50.9135647],[14.9948976,50.9151069],[14.9894538,50.9216414],[14.9954076,50.9270649],[15.0017277,50.9287274],[15.0077768,50.9358612],[15.0143361,50.9398257],[15.0130045,50.9435975],[15.015281,50.9502792],[15.0107466,50.9629795],[15.0172873,50.9668007],[15.0217114,50.9670714],[15.0150576,50.9722381],[15.01102,50.9816896],[15.0059171,50.986559],[14.9918814,50.9813401],[14.98893,50.9780314],[14.9741523,50.9879176],[14.9682431,50.9900121],[14.9838411,51.0065096],[14.9854163,51.0108409],[14.9972435,51.0092137],[15.0089834,51.0154704],[15.0143198,51.0159897],[15.0164711,51.021811],[15.024192,51.0232162],[15.0325626,51.0215014],[15.0329656,51.0184458],[15.0351882,51.0167388],[15.0328834,51.0155184],[15.035439,51.0128437],[15.0556588,51.0119759],[15.057886,51.0136915],[15.0577194,51.0225083],[15.0610024,51.0228972],[15.0678518,51.0211471],[15.0693309,51.0176835],[15.0759483,51.0171938],[15.0772005,51.0162965],[15.0768294,51.013408],[15.0841932,51.0134665],[15.0850628,51.0147605],[15.0937756,51.0124959],[15.0984115,51.0132328],[15.1067049,51.0103752],[15.1074463,51.0083182],[15.1061849,51.0070591],[15.1001936,51.0056526],[15.0967925,51.0029328],[15.1007943,50.9939675],[15.1051583,50.9913802],[15.1207549,50.993316],[15.1289993,50.9901274],[15.1421093,50.9913235],[15.1423162,50.993035],[15.1407891,50.9936141],[15.1331058,50.9938921],[15.1351102,50.9993102],[15.1424187,51.007659],[15.1421003,51.0106971],[15.1452201,51.0124846],[15.144367,51.0133695],[15.1611597,51.0163518],[15.1718461,51.0200298],[15.174829,51.0102925],[15.1747529,50.9988458],[15.1772051,50.9934649],[15.175496,50.9886717],[15.171326,50.9865101],[15.1798514,50.9830163],[15.1918366,50.9805464],[15.2000242,50.9840053],[15.1966068,50.9883313],[15.2043101,50.9925077],[15.2128664,50.9920055],[15.2185018,50.9954902],[15.2277193,50.9960091],[15.2365633,50.9986695],[15.2423266,50.9969459],[15.2371796,50.9945657],[15.2400404,50.9917703],[15.2386638,50.9906022],[15.2433045,50.9883949],[15.2392965,50.9860071],[15.2484504,50.9796745],[15.253995,50.981084],[15.274075,50.9795465],[15.2772084,50.9716268],[15.2738841,50.9629106],[15.2881063,50.9580025],[15.2922424,50.9526397],[15.2887152,50.9463017],[15.2786146,50.9418458],[15.2773055,50.9390833],[15.2700815,50.9359754],[15.267848,50.9324979],[15.2697148,50.925462],[15.266916,50.920278],[15.2707478,50.9155804],[15.2703201,50.9112844],[15.2768634,50.8992563],[15.2770702,50.8910208],[15.2898842,50.8816981],[15.2924231,50.8763219],[15.3118342,50.860182],[15.3221331,50.8600925],[15.3264418,50.8581029],[15.328859,50.8589376],[15.3276718,50.8574667],[15.329643,50.8563417],[15.3374216,50.8561008],[15.3384886,50.8572146],[15.3409055,50.8546534],[15.3429756,50.8552819],[15.3429754,50.8534515],[15.3450128,50.8529114],[15.3455921,50.8541159],[15.3501842,50.8508541],[15.3534314,50.8515034],[15.3530925,50.8502708],[15.3584453,50.8469354],[15.360267,50.8423619],[15.3675235,50.8376947],[15.3700028,50.834004],[15.3692785,50.8321395],[15.3721864,50.823569],[15.376105,50.8211478],[15.3719768,50.8191267],[15.3700413,50.8143619],[15.3740842,50.8118069],[15.3720169,50.8081772],[15.3740126,50.8073634],[15.3686871,50.8053548],[15.366176,50.8020712],[15.3724936,50.7957658],[15.3715454,50.7925049],[15.3740566,50.7891116],[15.3718629,50.7870554],[15.3734501,50.7847822],[15.3698199,50.7811548],[15.3747614,50.777621],[15.3804306,50.7779978],[15.385161,50.7754774],[15.3941342,50.7765454],[15.4035777,50.782244],[15.4150554,50.7927764],[15.4208266,50.8032377],[15.4254004,50.8063339],[15.4395254,50.8090557],[15.4502332,50.8071092],[15.4509344,50.8040769],[15.4734803,50.7967543],[15.4805281,50.7908361],[15.4936562,50.7882276],[15.5110028,50.7908105],[15.5243087,50.7770008],[15.5457643,50.780423],[15.5640174,50.7761161],[15.578751,50.778968],[15.603658,50.7763087],[15.6164297,50.7723402],[15.6221144,50.7652007],[15.6486366,50.7595436],[15.6592913,50.7598609],[15.6676888,50.7567541],[15.6802961,50.7547683],[15.6839198,50.752614],[15.688643,50.7427957],[15.7057089,50.7372547],[15.7146785,50.7373833],[15.7233655,50.739787],[15.7285168,50.7393899],[15.7343324,50.736174],[15.739783,50.7359431],[15.7597682,50.7435554],[15.7792189,50.7422724],[15.7887557,50.746748],[15.7914745,50.7526529],[15.8161933,50.75532],[15.8197064,50.7497618],[15.8319373,50.7426865],[15.8303683,50.737442],[15.8318787,50.7323763],[15.8301275,50.7277882],[15.8314693,50.7264437],[15.829938,50.7243883],[15.8392052,50.7176006],[15.8461141,50.7099521],[15.8510494,50.708224],[15.8531266,50.7005724],[15.8573634,50.6968226],[15.8598761,50.6873295],[15.8633045,50.6813012],[15.8609633,50.6744493],[15.8840089,50.6711634],[15.8850658,50.6753469],[15.9067067,50.6798114],[15.9195308,50.6845955],[15.9261947,50.6807534],[15.9297827,50.6828614],[15.9318329,50.6864756],[15.9425443,50.6870394],[15.9498994,50.6900414],[15.9612341,50.6918515],[15.9671659,50.6917227],[15.9909052,50.6834118],[15.9903677,50.6770091],[15.99373,50.6733725],[15.9987559,50.6724923],[15.9979243,50.6684584],[16.0043407,50.6581411],[16.0033517,50.6512881],[16.0049897,50.6486218],[16.0009512,50.6447851],[16.0054319,50.6424716],[16.0085478,50.6344905],[16.0163143,50.6332949],[16.0217486,50.6301681],[15.9976117,50.6225208],[15.9867121,50.6152197],[15.9864398,50.613483],[15.9905389,50.6105365],[16.0085308,50.6046974],[16.0111647,50.6068545],[16.0156979,50.6061129],[16.0195439,50.6002625],[16.0248323,50.5986228],[16.042615,50.6142363],[16.0560795,50.6097033],[16.0583905,50.613122],[16.0573456,50.6168835],[16.0598233,50.6250343],[16.0675933,50.6397203],[16.084746,50.6470778],[16.089165,50.6526965],[16.0950631,50.6530034],[16.0998051,50.6586862],[16.1007694,50.6625088],[16.1036779,50.6633613],[16.1112478,50.6609418],[16.1129839,50.6586174],[16.116345,50.6603989],[16.1258341,50.6605819],[16.1279386,50.6575653],[16.1344717,50.6561227],[16.1394929,50.6507828],[16.1483799,50.6533364],[16.1703673,50.6452774],[16.1769571,50.6396454],[16.1774677,50.6359264],[16.1801573,50.6336446],[16.1793775,50.6286566],[16.1841686,50.6272049],[16.200866,50.6317069],[16.2173562,50.633346],[16.2205259,50.6364852],[16.2190071,50.6383103],[16.2209413,50.6397704],[16.2214813,50.6515068],[16.2250924,50.6554995],[16.2302414,50.66771],[16.2348128,50.6715692],[16.2583594,50.6671178],[16.2794374,50.6682063],[16.2818363,50.6613833],[16.2841062,50.6604491],[16.3002606,50.6608371],[16.3049773,50.6590633],[16.3127537,50.6623149],[16.3138131,50.6644654],[16.32213,50.6665952],[16.3338684,50.6625272],[16.3430806,50.6615084],[16.3439877,50.657334],[16.3494107,50.6524987],[16.3512233,50.6478537],[16.3560673,50.6467004],[16.3613235,50.6484052],[16.3640788,50.6474986],[16.3650589,50.6448647],[16.3736947,50.6366029],[16.3794765,50.6366469],[16.3781356,50.6344296],[16.380382,50.6303558],[16.3944593,50.6187276],[16.4049594,50.6173167],[16.412783,50.610131],[16.4229522,50.6063311],[16.4433207,50.5865022],[16.4449071,50.5795696],[16.4210969,50.5691963],[16.404645,50.5692719],[16.4039987,50.5646749],[16.4083594,50.5613829],[16.4106476,50.5564003],[16.410932,50.5478983],[16.3873932,50.5419835],[16.3982367,50.5345426],[16.396768,50.5332788],[16.4017813,50.5298875],[16.3995928,50.5272403],[16.3944946,50.5261036],[16.3866896,50.5203431],[16.373943,50.5163715],[16.3659632,50.5059121],[16.3603548,50.5012251],[16.351619,50.4979768],[16.3483679,50.4993331],[16.3477643,50.496545],[16.3438006,50.49584],[16.3381464,50.4996947],[16.334254,50.4997716],[16.3324964,50.5035235],[16.3207394,50.5075874],[16.3115277,50.5061321],[16.3094416,50.49937],[16.3120838,50.4971675],[16.3124098,50.4941136],[16.3046319,50.4909927],[16.3004913,50.4914798],[16.3016302,50.4893748],[16.2997397,50.4852127],[16.2940968,50.4791945],[16.2885369,50.4809141],[16.2837214,50.4798398],[16.2734575,50.4825378],[16.2737498,50.4840654],[16.271461,50.4846738],[16.269992,50.4839777],[16.2710913,50.4832725],[16.2685092,50.4829067],[16.2696409,50.4795828],[16.2747071,50.4765839],[16.2685796,50.4758799],[16.2647991,50.4800502],[16.2587055,50.4801755],[16.2551425,50.4764613],[16.2490805,50.4735119],[16.2493167,50.4719375],[16.2557017,50.4676226],[16.2433673,50.463058],[16.2335393,50.4668197],[16.2317513,50.4661577],[16.2354269,50.4635168],[16.2362996,50.4607866],[16.2352529,50.4599134],[16.2242823,50.4607303],[16.2203757,50.4578859],[16.2303998,50.4536002],[16.2305275,50.4507375],[16.2340587,50.4486933],[16.2336315,50.4460126],[16.2309456,50.444701],[16.2318832,50.4434757],[16.2239776,50.4420763],[16.2208122,50.4462614],[16.2214174,50.4508856],[16.2129587,50.4517035],[16.2050063,50.4486519],[16.1988335,50.4417846],[16.1986776,50.4347275],[16.1957111,50.4321315],[16.1982824,50.4288396],[16.2039565,50.4295957],[16.2098444,50.4267884],[16.2141085,50.4146949],[16.2113611,50.4136906],[16.2104666,50.4112405],[16.2144687,50.409103],[16.2218456,50.4069214],[16.2302014,50.4121762],[16.2381099,50.4140768],[16.2416782,50.4113774],[16.2416165,50.4096733],[16.2529226,50.4056424],[16.2538474,50.4031586],[16.2519297,50.4023325],[16.2518973,50.3996871],[16.2473533,50.3982352],[16.2473836,50.3961887],[16.2506527,50.3934966],[16.2630511,50.3935637],[16.2673909,50.386741],[16.2659388,50.3816055],[16.2682645,50.3790927],[16.2768553,50.3762032],[16.2786326,50.367443],[16.2865114,50.3675692],[16.2915587,50.3700921],[16.2992441,50.3807635],[16.3046852,50.3825941],[16.3087052,50.383124],[16.3168933,50.3801841],[16.326271,50.3821053],[16.341809,50.3778651],[16.3485158,50.3806508],[16.3525409,50.3786137],[16.3606602,50.3795482],[16.3649131,50.3739455],[16.3636037,50.3706839],[16.368028,50.3669648],[16.3656188,50.363156],[16.3658856,50.3573123],[16.3611608,50.3536383],[16.3621643,50.3497264],[16.3646489,50.3468609],[16.375194,50.3422753],[16.3832289,50.3288138],[16.3992602,50.3191888],[16.4053345,50.3201439],[16.4107658,50.3245626],[16.4312977,50.3246996],[16.4365219,50.3210069],[16.4379744,50.3164335],[16.4439953,50.3131051],[16.4481818,50.3050125],[16.4645894,50.2956783],[16.4647407,50.2929503],[16.4681259,50.2902059],[16.4666716,50.2868742],[16.4801198,50.2770588],[16.4819332,50.271415],[16.4869479,50.270762],[16.4889895,50.2685459],[16.4897301,50.2642327],[16.4937185,50.263511],[16.497484,50.2598378],[16.5062573,50.260286],[16.5080967,50.2576266],[16.5067127,50.2554767],[16.5084662,50.2527508],[16.5143277,50.2516168],[16.5128213,50.2474231],[16.517018,50.2432833],[16.5228702,50.239355],[16.5291905,50.2375962],[16.5374587,50.2390401],[16.5406141,50.2338301],[16.5452406,50.2300276],[16.5483082,50.2297614],[16.5511939,50.2230391],[16.5573508,50.2203787],[16.5567552,50.2170513],[16.5534268,50.2149641],[16.5581905,50.2135186],[16.5584849,50.2100917],[16.5616889,50.2076121],[16.5612636,50.205454],[16.5559698,50.203127],[16.5569863,50.1995466],[16.55439,50.1962152],[16.5588754,50.1891161],[16.5570986,50.1848398],[16.5604423,50.1841117],[16.5638123,50.1798427],[16.5581969,50.1738855],[16.5578298,50.1705809],[16.5611148,50.163877],[16.5783577,50.1576831],[16.577829,50.1552594],[16.5854146,50.1522723],[16.5801984,50.1486424],[16.584671,50.1456513],[16.5800794,50.1424176],[16.5893692,50.1400959],[16.5953173,50.1404689],[16.5994537,50.1384899],[16.6035061,50.1340089],[16.611423,50.1328318],[16.6135282,50.1314353],[16.6139627,50.1251121],[16.6251705,50.1210205],[16.6319479,50.1148079],[16.6336045,50.1113384],[16.6412679,50.1121712],[16.6534938,50.1097875],[16.6780474,50.1037731],[16.6887117,50.0986083],[16.7060259,50.096582],[16.7238796,50.1052452],[16.7231578,50.1066688],[16.7271912,50.1096972],[16.7290724,50.1168779],[16.7337659,50.1201662],[16.7450434,50.1347249],[16.7508734,50.1353365],[16.755348,50.1339369],[16.7670867,50.1398948],[16.7827612,50.1451128],[16.7835353,50.1480033],[16.7816182,50.1513315],[16.7904424,50.1568586],[16.7973578,50.1656546],[16.800677,50.1801098],[16.8054121,50.1827314],[16.812987,50.1914035],[16.8167863,50.1920835],[16.8228522,50.1886645],[16.825866,50.1946039],[16.8358874,50.1979278],[16.834738,50.2010011],[16.8365363,50.2030782],[16.8486285,50.2076424],[16.8514452,50.2047903],[16.8618833,50.2011018],[16.8632533,50.1981199],[16.8716288,50.1969635],[16.8819195,50.1995549],[16.8847327,50.2036884],[16.8850268,50.2130581],[16.8887705,50.2162737],[16.8980811,50.2185907],[16.8986423,50.2226582],[16.9173796,50.2261938],[16.9234854,50.22548],[16.9288458,50.2227985],[16.9447627,50.2230139],[16.9498048,50.2213194],[16.9559532,50.222525],[16.9584447,50.2261015],[16.9658432,50.2297876],[16.9611311,50.2352655],[16.9627627,50.2386674],[16.9759197,50.2448162],[16.9803615,50.2416396],[16.9806154,50.2358102],[16.9821254,50.2337647],[16.9922273,50.2268158],[16.9945314,50.2206018],[16.9985412,50.2158809],[17.0145107,50.2192544],[17.0212505,50.2264611],[17.0283129,50.2299894],[17.0152992,50.2404373],[17.0115214,50.2413721],[17.0108102,50.2492267],[17.0032902,50.2529795],[17.001551,50.2563955],[17.0098499,50.2602536],[17.0165517,50.2673406],[17.0200449,50.2782616],[17.0175138,50.2806656],[17.015809,50.2867007],[17.0090159,50.2952902],[17.0037038,50.2963034],[17.0043563,50.2986898],[17.0026375,50.3021168],[16.993445,50.3023547],[16.9735269,50.3081795],[16.9682631,50.3159266],[16.9620031,50.3142449],[16.9610154,50.3125642],[16.9558505,50.3122218],[16.9461389,50.3153884],[16.9462314,50.3178354],[16.9407168,50.319788],[16.9344207,50.3298607],[16.9384668,50.3331054],[16.9364833,50.3378272],[16.9374824,50.3422128],[16.9298311,50.3458231],[16.9215796,50.3550767],[16.9193499,50.3602169],[16.9153693,50.3629804],[16.9195689,50.3689674],[16.9143567,50.3799509],[16.9150603,50.3824712],[16.9101673,50.3851799],[16.9109693,50.389036],[16.9070918,50.3913127],[16.899023,50.3895965],[16.8901635,50.3967379],[16.872182,50.4028984],[16.8637609,50.4089015],[16.8603219,50.4077491],[16.8607756,50.4115042],[16.8695772,50.4170811],[16.8692215,50.4225054],[16.875812,50.4281848],[16.8755626,50.4326348],[16.8807201,50.4361598],[16.8811238,50.4423951],[16.8867055,50.4441884],[16.8934818,50.4434629],[16.8984995,50.4477153],[16.907898,50.4494483],[16.9175784,50.4445893],[16.921939,50.4404964],[16.9460668,50.4339739],[16.9633748,50.4260345],[16.9712333,50.4213653],[16.9740102,50.4177556],[16.9833757,50.4200796],[16.9982906,50.4277499],[17.0061543,50.4244885],[17.0135267,50.4185833],[17.0183386,50.421414],[17.0242706,50.421474],[17.0297608,50.415385],[17.0379168,50.4148471],[17.0525324,50.4069605],[17.0683886,50.4057038],[17.0823351,50.4019955],[17.0834636,50.4054924],[17.0851377,50.4057858],[17.110748,50.4049625],[17.1111076,50.3936892],[17.1235332,50.394081],[17.1295758,50.3911809],[17.14333,50.3804206],[17.1520977,50.3815452],[17.1572199,50.3800694],[17.1625207,50.3836585],[17.1794736,50.3861587],[17.1840374,50.3899563],[17.203265,50.3863588],[17.2026737,50.3816003],[17.1991141,50.3750776],[17.2011425,50.3640162],[17.2130489,50.3575444],[17.2246246,50.3452138],[17.2420901,50.3372768],[17.2470338,50.333859],[17.2473241,50.3320748],[17.2642972,50.3280185],[17.2740156,50.3218278],[17.282052,50.3190052],[17.2915621,50.3175579],[17.3106695,50.3201631],[17.3277934,50.327099],[17.3486618,50.3283501],[17.3500291,50.3253427],[17.348227,50.3227956],[17.3404897,50.3226814],[17.3375078,50.3130628],[17.3486198,50.3117921],[17.3536803,50.3080428],[17.3513525,50.3064219],[17.3504973,50.3021275],[17.3459863,50.2978303],[17.3447156,50.2912956],[17.3481961,50.2874372],[17.3377348,50.283473],[17.3438025,50.2793673],[17.3427501,50.2761978],[17.3462665,50.2675531],[17.3508321,50.2637238],[17.3580362,50.2652927],[17.3625358,50.2643286],[17.3624859,50.2764],[17.3631431,50.2796357],[17.3661241,50.2820573],[17.3862027,50.2828794],[17.4008289,50.2795914],[17.4068702,50.2739301],[17.420671,50.2774226],[17.4311863,50.263054],[17.4276817,50.2586445],[17.4296899,50.2541756],[17.4382317,50.2516618],[17.4549119,50.2568118],[17.4571483,50.2603439],[17.4561861,50.2696938],[17.4634687,50.2670543],[17.4686899,50.2695664],[17.471821,50.2691686],[17.4955892,50.2750885],[17.5244543,50.2750082],[17.5257728,50.2735937],[17.5418492,50.270357],[17.5598084,50.2713631],[17.5631973,50.2702938],[17.5718673,50.2746644],[17.578547,50.2758485],[17.5807262,50.2779189],[17.5918814,50.2789534],[17.5976306,50.2748432],[17.5980472,50.2706671],[17.6026338,50.2698704],[17.605922,50.2669725],[17.6165172,50.2667663],[17.6384313,50.2736905],[17.6416848,50.2761216],[17.6507524,50.2777643],[17.657828,50.2848891],[17.6641178,50.2870086],[17.6685938,50.2911613],[17.6756442,50.2921582],[17.6807968,50.2969933],[17.6859947,50.2990538],[17.6891181,50.30186],[17.6870985,50.3057469],[17.6889948,50.3155925],[17.6878335,50.3160208],[17.6869201,50.3279758],[17.692681,50.3269761],[17.7116868,50.3229399],[17.7210336,50.3191737],[17.7288592,50.3032738],[17.7332869,50.3035079],[17.7376644,50.3012385],[17.7408417,50.3019606],[17.7449135,50.300345],[17.7454985,50.301515],[17.7496432,50.301164],[17.7520456,50.2995213],[17.7517113,50.2974654],[17.7485037,50.2966956],[17.7496193,50.295356],[17.7478262,50.293095],[17.7429451,50.2910439],[17.7346349,50.2775778],[17.7258691,50.2728181],[17.7249471,50.2567502],[17.7649695,50.2353701],[17.7565502,50.22145],[17.7599906,50.2165625],[17.7574864,50.2105881],[17.758456,50.2065719],[17.7480498,50.2052777],[17.7411325,50.2020592],[17.7346104,50.2024916],[17.7242144,50.2065821],[17.7173623,50.2056983],[17.7173288,50.2024496],[17.7099837,50.1991991],[17.7116376,50.1960969],[17.7106923,50.1919847],[17.7042641,50.1897078],[17.7059355,50.1864147],[17.7046558,50.1849044],[17.6835901,50.1816135],[17.67944,50.1829359],[17.6657646,50.1778453],[17.6433151,50.1761662],[17.6306705,50.1734567],[17.6256963,50.1691861],[17.6154603,50.1713128],[17.6011524,50.1696264],[17.5926847,50.1599766],[17.6058101,50.148966],[17.6108811,50.1400373],[17.6402549,50.1307343],[17.644865,50.1245753],[17.6437532,50.1226992],[17.6465418,50.1165773],[17.6486083,50.1162267],[17.6476369,50.1138837],[17.6493618,50.1114138],[17.6619817,50.1086869],[17.676657,50.103024],[17.6832672,50.1173087],[17.6968362,50.1169933],[17.7051259,50.1144061],[17.7182892,50.1060706],[17.7308762,50.0971615],[17.7294948,50.0879358],[17.7382354,50.0824117],[17.740058,50.082751],[17.7391668,50.0815421],[17.7403101,50.0808594],[17.7430775,50.081348],[17.748914,50.0788322],[17.7491792,50.0760058],[17.7524441,50.0742184],[17.7509411,50.0732544],[17.7524384,50.0696538],[17.7567544,50.0685472],[17.7561908,50.0671081],[17.7588948,50.0677508],[17.7563806,50.0655377],[17.7595302,50.0643357],[17.7548749,50.0625373],[17.7554559,50.0608292],[17.7583674,50.059765],[17.7569147,50.0583778],[17.7609625,50.0588685],[17.76134,50.0569248],[17.7641744,50.0560147],[17.7620397,50.0557428],[17.7615184,50.053481],[17.7668023,50.0510036],[17.7691288,50.0514912],[17.7689276,50.049113],[17.7714221,50.0486333],[17.7720916,50.0463548],[17.770597,50.0438994],[17.7732731,50.0423571],[17.7692636,50.0377522],[17.7697982,50.0352623],[17.7751595,50.035097],[17.7771278,50.0310817],[17.776526,50.028379],[17.7717584,50.0252325],[17.7775687,50.0202023],[17.7851593,50.0202105],[17.7886764,50.0173263],[17.7923829,50.0191273],[17.7950198,50.0177057],[17.7950483,50.0144584],[17.7981426,50.0135014],[17.8276885,50.0113046],[17.8368567,50.0036091],[17.8263698,49.9940079],[17.8326765,49.9917019],[17.8340296,49.9898097],[17.8376579,49.9923535],[17.838298,49.990076],[17.8428232,49.9868058],[17.8503489,49.9867871],[17.851973,49.9839978],[17.8511953,49.9826684],[17.8545005,49.9827691],[17.8567223,49.9798628],[17.8614943,49.9806484],[17.8684964,49.9724893],[17.8895053,49.980085],[17.9091562,49.9765104],[17.9228469,49.9787509],[17.9300674,49.9866197],[17.9540415,50.0050671],[17.9618519,50.0049817],[17.9655087,50.0082471],[17.9698279,50.0088793],[17.983279,50.0050793],[17.9892682,50.0135356],[18.0046333,50.0183607],[18.0074607,50.0106989],[18.0352954,50.0110082],[18.0370973,50.0086034],[18.0454604,50.0051267],[18.0457049,50.0102909],[18.04091,50.0136044],[18.042467,50.01572],[18.0463093,50.0158863],[18.045889,50.0191721],[18.0469916,50.0193833],[18.0429282,50.0220401],[18.0475391,50.0247304],[18.0466841,50.0268114],[18.0490156,50.0274277],[18.0443784,50.036607],[18.0247396,50.03876],[18.0245941,50.0365676],[18.0222023,50.0361445],[18.0178421,50.0314434],[18.0131017,50.0302394],[18.0088212,50.0312848],[18.0040706,50.038994],[18.0059163,50.0404299],[18.0066424,50.0447137],[18.0051536,50.053494],[18.0119934,50.0547212],[18.0208566,50.0609207],[18.0336027,50.0660204],[18.040832,50.0629555],[18.0460703,50.0625858],[18.0498291,50.0583713],[18.0617131,50.0591825],[18.0637753,50.0527356],[18.0675869,50.0531318],[18.065927,50.0480942],[18.0773595,50.0456461],[18.0859286,50.0459523],[18.0893581,50.0441194],[18.0884673,50.0382776],[18.0849134,50.0341381],[18.085615,50.0319709],[18.1031477,50.0226045],[18.0932813,50.0149975],[18.0946689,50.0120976],[18.1047788,50.0009186],[18.1154724,49.9967281],[18.1169714,49.9941538],[18.1311258,49.9980718],[18.1343688,49.9974275],[18.1360665,49.9939069],[18.1469381,49.9916197],[18.1538354,49.9823703],[18.1690068,49.9864512],[18.1719969,49.9900112],[18.1681171,49.993864],[18.1679798,49.9985159],[18.1738322,49.9985683],[18.1731291,50.0002902],[18.1900857,49.9987746],[18.1932211,49.9945218],[18.2065699,49.9979365],[18.2113831,49.9922761],[18.2118354,49.9882687],[18.2138325,49.9861315],[18.2153726,49.9757057],[18.214286,49.9720064],[18.2216238,49.967657],[18.2363966,49.9710486],[18.2763074,49.9646362],[18.2784069,49.9624572],[18.2818339,49.9505488],[18.2792072,49.9400649],[18.2826441,49.9391384],[18.281711,49.9371569],[18.289688,49.9287291],[18.2990301,49.9287305],[18.3006731,49.9252373],[18.2991189,49.9238118],[18.314956,49.9187958],[18.3149298,49.9173557],[18.3179466,49.9156778],[18.3223766,49.9163147],[18.3298721,49.9233056],[18.3311116,49.9263493],[18.3303807,49.9305928],[18.3335192,49.9302552],[18.3337435,49.9272246],[18.3400943,49.9256595],[18.3448448,49.9298342],[18.3500232,49.9295987],[18.3408406,49.9321113],[18.3419514,49.9347005],[18.3498102,49.933821],[18.3517305,49.9352156],[18.346416,49.9402137],[18.3406565,49.9383694],[18.3348718,49.939976],[18.3329581,49.9493865],[18.337448,49.9459964],[18.3560182,49.9440688],[18.3597815,49.9408012],[18.364324,49.9402986],[18.3667398,49.9371706],[18.3738821,49.9372405],[18.3769798,49.9356103],[18.3976616,49.9342644],[18.421435,49.9385996],[18.4307523,49.9381613],[18.4328729,49.9281667],[18.4376349,49.9283035],[18.4454572,49.9230218],[18.4632724,49.9223198],[18.4670231,49.916094],[18.4829999,49.9107966],[18.484732,49.9092624],[18.4835546,49.907927],[18.4857574,49.9074083],[18.4850822,49.9063915],[18.4905169,49.9052201],[18.4909229,49.9033918],[18.4955321,49.9063282],[18.4980857,49.9030134],[18.4998628,49.9049007],[18.5012978,49.9032376],[18.5046861,49.9034974],[18.5035689,49.9025377],[18.5054922,49.9018261],[18.5055814,49.9030736],[18.5192143,49.9023256],[18.5236635,49.8994948],[18.5265401,49.901112],[18.528286,49.8995461],[18.5289524,49.9010344],[18.5298734,49.8996927],[18.5343704,49.8996049],[18.5350683,49.9019815],[18.5384926,49.9026054],[18.5470295,49.9091099],[18.5398782,49.9120475],[18.5404528,49.919767],[18.5430288,49.9224453],[18.5393802,49.9256866],[18.5448922,49.9258398],[18.5596973,49.917887],[18.5729087,49.9216209],[18.5751805,49.9186229],[18.5745023,49.9146683],[18.5761767,49.9132788],[18.5737354,49.9124696],[18.5757081,49.910416],[18.5737011,49.9077892],[18.5800632,49.9055497],[18.5778291,49.9035338],[18.5776068,49.8999831],[18.5708684,49.8916754],[18.5737482,49.8895205],[18.5734887,49.8879372],[18.5699756,49.8842853],[18.5660288,49.8831514],[18.5656704,49.8806691],[18.571415,49.8759686],[18.5695866,49.8734434],[18.579623,49.8693639],[18.578803,49.8682798],[18.5802375,49.8667886],[18.5903602,49.8676145],[18.5991189,49.8662994],[18.6057277,49.8615994],[18.6038777,49.8571146],[18.5918501,49.8560428],[18.5889788,49.8528727],[18.5837121,49.852306],[18.5896192,49.8457721],[18.5694296,49.834397],[18.568922,49.8292004],[18.5710545,49.8262053],[18.5759473,49.8239932],[18.5774814,49.8206455],[18.5823469,49.8179782],[18.5824456,49.8098996],[18.5853028,49.804857],[18.5929463,49.8017464],[18.5928215,49.7977307],[18.5999556,49.7893597],[18.5972889,49.7843454],[18.6025657,49.7808842],[18.6047551,49.7747576],[18.6104613,49.7706833],[18.6109322,49.7664493],[18.614457,49.76133],[18.613381,49.7551025],[18.6162261,49.7527772],[18.6257432,49.7503747],[18.6292129,49.747093],[18.6262336,49.7298206],[18.6288584,49.7261285],[18.625217,49.7223826],[18.6294876,49.7218486],[18.6303129,49.7196902],[18.6363332,49.7171315],[18.6361966,49.7149665],[18.6416992,49.7122878],[18.6523155,49.7109937],[18.6525841,49.7076216],[18.6586095,49.7108282],[18.6668906,49.7096564],[18.6682247,49.7034366],[18.6780128,49.7058289],[18.6809617,49.7037582],[18.6936619,49.7065968],[18.7095574,49.7044927],[18.7076693,49.7022871],[18.7114938,49.6996936],[18.7092484,49.6954271],[18.714871,49.6961013],[18.7145988,49.691706],[18.7175535,49.6897482],[18.7179502,49.6876537],[18.7170686,49.6835118],[18.7232898,49.6826966],[18.7297874,49.6841941],[18.7381335,49.6808397],[18.7393122,49.6772368],[18.7409741,49.676544],[18.7511693,49.6768927],[18.7641546,49.6846318],[18.7668639,49.6822947],[18.7738648,49.6828196],[18.7806344,49.6853581],[18.7938802,49.6793553],[18.8045839,49.6788746],[18.8069489,49.6767832],[18.8100861,49.6710398],[18.8066522,49.6656731],[18.8092868,49.6575507],[18.8063417,49.6512836],[18.8134066,49.6398168],[18.812956,49.6343483],[18.8171882,49.6316331],[18.8202516,49.6241989],[18.8188006,49.6185575],[18.8242582,49.6144563],[18.8232037,49.6040596],[18.8266948,49.5969504],[18.8292906,49.5949396],[18.8390802,49.5953175],[18.8355464,49.5899678],[18.8353661,49.5866649],[18.8317014,49.5841342],[18.8349355,49.577133],[18.8332185,49.5734143],[18.8375501,49.5691721],[18.8372099,49.5630622],[18.8392319,49.5608118],[18.8455866,49.5608801],[18.8488494,49.5584969],[18.849283,49.5543153],[18.8592538,49.5505858],[18.8574519,49.5379259],[18.8497761,49.5344243],[18.847152,49.5355426],[18.8440961,49.5340893],[18.8434298,49.5305609],[18.8446996,49.5282385],[18.8372335,49.5236351],[18.8430115,49.5185415],[18.8516,49.5182993],[18.8509071,49.5171489],[18.86677,49.519423],[18.875497,49.515868],[18.886727,49.516694],[18.897157,49.514421],[18.930851,49.519946],[18.935526,49.518435],[18.941662,49.5189],[18.946319,49.51742],[18.9488009,49.512652],[18.954709,49.512579],[18.9626002,49.5089229],[18.965018,49.505957],[18.968231,49.506354],[18.971646,49.504336],[18.973333,49.496807],[18.966231,49.493092],[18.963152,49.484581],[18.960451,49.48275],[18.970198,49.476808],[18.964587,49.472438],[18.966205,49.467957],[18.963008,49.45743],[18.960783,49.454705],[18.973874,49.451654],[18.976229,49.447374],[18.975712,49.445385],[18.978937,49.442774],[18.977787,49.440532],[18.983751,49.433466],[18.988972,49.431299],[18.985723,49.4218487],[18.968751,49.4133304],[18.969599,49.409325],[18.97315,49.406938],[18.971181,49.402063],[18.9798538,49.3952215],[18.9896423,49.3983803],[19.0017009,49.3976566],[19.0100578,49.394786],[19.0148141,49.3964334],[19.0259001,49.3940109],[19.0350225,49.3957194],[19.044693,49.4004467],[19.0460587,49.4019114],[19.0443084,49.4047359],[19.051853,49.4104126],[19.0539125,49.4151627],[19.0643618,49.4144593],[19.0701891,49.4123937],[19.072731,49.417984],[19.091472,49.415973],[19.093639,49.410796],[19.102998,49.409791],[19.107287,49.403682],[19.120358,49.402659],[19.131079,49.405121],[19.133114,49.406801],[19.132561,49.408074],[19.137516,49.409956],[19.145043,49.407972],[19.150658,49.403645],[19.1756,49.413744],[19.187451,49.409665],[19.191606,49.411086],[19.197397,49.414564],[19.190998,49.42104],[19.193406,49.42601],[19.186326,49.431951],[19.1857359,49.4347198],[19.198581,49.448161],[19.208989,49.451828],[19.219007,49.448612],[19.219596,49.45089],[19.225311,49.454314],[19.228263,49.463736],[19.227127,49.466946],[19.219982,49.469307],[19.220465,49.473491],[19.225072,49.478551],[19.2272507,49.484129],[19.2315404,49.4868292],[19.2278291,49.4919351],[19.2355148,49.4956578],[19.2370299,49.5016992],[19.2340428,49.5037183],[19.2348221,49.5077096],[19.2332716,49.5104924],[19.2610254,49.5272866],[19.2606883,49.5312291],[19.2747666,49.5319036],[19.2815735,49.5353183],[19.2928313,49.5331991],[19.2996847,49.5335825],[19.3103556,49.5370152],[19.3155709,49.5365851],[19.3186662,49.5341922],[19.3187944,49.5310826],[19.3295583,49.531766],[19.3468956,49.5359066],[19.3622997,49.5360882],[19.3661482,49.5389461],[19.3685743,49.5450334],[19.3665935,49.5537032],[19.3734541,49.5578504],[19.3713627,49.5674421],[19.3840749,49.5720849],[19.3898847,49.5717614],[19.3961088,49.5742678],[19.4000179,49.5741342],[19.4076416,49.5808269],[19.4068361,49.5859549],[19.4099851,49.5921592],[19.4227294,49.5957609],[19.4306445,49.5954091],[19.442018,49.598501],[19.4451311,49.6016067],[19.4420658,49.6055722],[19.4462324,49.6133009],[19.4485179,49.6138162],[19.4549414,49.6109081],[19.4673762,49.6137628],[19.4746169,49.6046527],[19.4736792,49.6015662],[19.4684976,49.5964127],[19.4757825,49.5915968],[19.478408,49.5880283],[19.4925145,49.5843485],[19.4972272,49.5815758],[19.5102073,49.5814392],[19.5172078,49.5740223],[19.5220086,49.5722347],[19.529331,49.5730216],[19.527408,49.5611735],[19.5299312,49.5492832],[19.5291164,49.5411093],[19.530449,49.5357702],[19.5355812,49.5304966],[19.5350931,49.5263114],[19.5415187,49.5232535],[19.5429227,49.5182535],[19.5516137,49.5076205],[19.5543877,49.4986965],[19.5536443,49.4899404],[19.5573958,49.486855],[19.5583738,49.487958],[19.5620208,49.482229],[19.5656288,49.480522],[19.5690548,49.474488],[19.5669128,49.47114],[19.5700408,49.470046],[19.5751548,49.463879],[19.5805818,49.461219],[19.5814677,49.4554092],[19.58888,49.458069],[19.5974358,49.4586318],[19.606137,49.453571],[19.60605,49.451289],[19.60909,49.450139],[19.611446,49.446873],[19.62543,49.449612],[19.6411189,49.4575599],[19.6428876,49.4545591],[19.6415676,49.4494855],[19.6377852,49.4481295],[19.6377964,49.4405483],[19.648596,49.435365],[19.640739,49.426064],[19.631728,49.408797],[19.635917,49.410386],[19.63868,49.408623],[19.639481,49.411262],[19.641168,49.409771],[19.644747,49.410618],[19.644331,49.40822],[19.650581,49.410002],[19.652779,49.408014],[19.66028,49.408464],[19.661217,49.406459],[19.662764,49.407682],[19.6671555,49.4055786],[19.671652,49.406056],[19.672071,49.404475],[19.675097,49.404791],[19.676486,49.403119],[19.678844,49.404286],[19.680087,49.402154],[19.682175,49.403978],[19.683711,49.402616],[19.685373,49.403584],[19.685768,49.40227],[19.687085,49.403103],[19.688676,49.401108],[19.691638,49.401032],[19.690096,49.399865],[19.692788,49.400875],[19.693215,49.399347],[19.696928,49.399453],[19.698405,49.397985],[19.699767,49.399677],[19.700201,49.397598],[19.702514,49.397256],[19.701803,49.396409],[19.704554,49.396537],[19.703444,49.395164],[19.706293,49.396146],[19.706697,49.393912],[19.707829,49.39493],[19.710567,49.392879],[19.708668,49.391636],[19.709593,49.390871],[19.713917,49.392048],[19.716499,49.390963],[19.718169,49.388821],[19.716211,49.387303],[19.717643,49.386422],[19.729639,49.391737],[19.738462,49.39995],[19.74134,49.404765],[19.7462787,49.4079369],[19.76758,49.412993],[19.7905922,49.4106881],[19.788938,49.401091],[19.7911425,49.396691],[19.7911317,49.3835114],[19.792557,49.378598],[19.8021791,49.3701107],[19.8038175,49.3648155],[19.8014403,49.3590065],[19.802451,49.353136],[19.79683,49.349864],[19.79472,49.344528],[19.797025,49.34301],[19.799108,49.33364],[19.802289,49.33031],[19.804964,49.322768],[19.804511,49.32006],[19.793311,49.30439],[19.792474,49.29974],[19.7945013,49.2960447],[19.8098793,49.2953969],[19.819688,49.283577],[19.822802,49.276794],[19.806343,49.274489],[19.802229,49.27062],[19.792472,49.267969],[19.792178,49.263418],[19.788786,49.261621],[19.790499,49.255259],[19.7846935,49.2462266],[19.778433,49.245401],[19.7733082,49.2390294],[19.7694631,49.2364636],[19.7667676,49.2365983],[19.7662571,49.2345695],[19.7691856,49.2307081],[19.7669425,49.2226128],[19.758386,49.2159804],[19.7597772,49.2112869],[19.7631071,49.2075775],[19.778588,49.204955],[19.781576,49.200356],[19.784254,49.199287],[19.795032,49.198366],[19.803739,49.204618],[19.807521,49.205652],[19.819834,49.199528],[19.82266,49.201438],[19.8294593,49.2016922],[19.833899,49.196777],[19.840025,49.195889],[19.841,49.192616],[19.844676,49.195066],[19.851147,49.196252],[19.869438,49.195797],[19.870301,49.198486],[19.881104,49.204367],[19.883928,49.204178],[19.88838,49.209188],[19.902332,49.213313],[19.901785,49.216371],[19.905224,49.21949],[19.9036349,49.2307623],[19.911392,49.232032],[19.919267,49.235785],[19.9322171,49.2364897],[19.9403414,49.2336631],[19.9434406,49.2344531],[19.971166,49.229955],[19.9815609,49.2318014],[19.989752,49.226263],[20.008629,49.22005],[20.009076,49.216177],[20.00647,49.213158],[20.020529,49.201505],[20.0397723,49.1974229],[20.0426189,49.1931776],[20.0482771,49.1897777],[20.060181,49.187041],[20.069107,49.180781],[20.079021,49.178476],[20.088154,49.179659],[20.086775,49.184767],[20.089253,49.187848],[20.08587,49.189192],[20.08435,49.194885],[20.0871947,49.1993859],[20.0871772,49.2076078],[20.0961645,49.2200329],[20.1016245,49.2226589],[20.102177,49.225661],[20.0999245,49.2276309],[20.0978335,49.2345519],[20.0981395,49.2380739],[20.100958,49.241466],[20.100887,49.25034],[20.1024235,49.2531229],[20.111342,49.258568],[20.11393,49.263319],[20.125144,49.270926],[20.128666,49.277071],[20.127879,49.286609],[20.132117,49.293444],[20.129984,49.296],[20.135933,49.303638],[20.134205,49.305921],[20.137484,49.306079],[20.141786,49.31228],[20.145146,49.31262],[20.145504,49.317513],[20.149503,49.319238],[20.1518647,49.3184472],[20.1518681,49.3151291],[20.1562531,49.3116496],[20.158916,49.3068176],[20.1577195,49.3028155],[20.1758037,49.3140828],[20.1674508,49.3231808],[20.173579,49.324976],[20.1705837,49.3277346],[20.1841559,49.3278079],[20.1892115,49.3322577],[20.1901025,49.3383548],[20.1932141,49.340978],[20.1955474,49.3423095],[20.203358,49.341806],[20.2123248,49.3446654],[20.2139922,49.3484299],[20.220823,49.35179],[20.2318153,49.3463209],[20.2407232,49.3483394],[20.2425059,49.3508651],[20.2483478,49.3497209],[20.2531904,49.3517581],[20.2539729,49.3489086],[20.2686569,49.345694],[20.2730539,49.3513721],[20.2928163,49.3515563],[20.3084345,49.3439398],[20.3164888,49.3445299],[20.3236537,49.3518116],[20.3230608,49.3558673],[20.3262156,49.3658616],[20.325584,49.371277],[20.3213515,49.3758677],[20.321378,49.378384],[20.331276,49.391429],[20.31751,49.388727],[20.320659,49.399585],[20.325081,49.403028],[20.344325,49.400638],[20.350749,49.401532],[20.357197,49.398523],[20.362271,49.398262],[20.368991,49.400991],[20.371134,49.407381],[20.375681,49.40786],[20.380912,49.403257],[20.38047,49.39563],[20.382309,49.391229],[20.393036,49.390576],[20.405747,49.392543],[20.412285,49.395203],[20.414688,49.397714],[20.414209,49.403515],[20.416875,49.40579],[20.427368,49.402484],[20.430756,49.396256],[20.43327,49.396615],[20.434814,49.398866],[20.434202,49.402062],[20.436988,49.406275],[20.434336,49.408085],[20.428727,49.408273],[20.42946,49.415409],[20.432295,49.417581],[20.436388,49.417661],[20.438246,49.414776],[20.446352,49.411918],[20.450929,49.412771],[20.445978,49.416334],[20.461215,49.414565],[20.464656,49.416009],[20.47196,49.415436],[20.476263,49.414066],[20.480701,49.410285],[20.488603,49.408409],[20.490145,49.406431],[20.5048874,49.4032896],[20.5073296,49.3990646],[20.5061568,49.3969431],[20.5099362,49.3934459],[20.5199565,49.392505],[20.5316534,49.3876535],[20.546507,49.385542],[20.557681,49.378099],[20.563175,49.379475],[20.575525,49.376106],[20.581692,49.383878],[20.586895,49.385489],[20.592135,49.38303],[20.600198,49.388295],[20.601858,49.391465],[20.600951,49.394423],[20.605774,49.4013],[20.613598,49.401824],[20.611274,49.412454],[20.614934,49.417845],[20.621964,49.416821],[20.622211,49.413418],[20.624669,49.410459],[20.638347,49.407507],[20.642078,49.404327],[20.642596,49.400994],[20.646988,49.40067],[20.6657,49.403552],[20.665767,49.406311],[20.6917211,49.419776],[20.698861,49.420521],[20.71833,49.418371],[20.72292,49.419656],[20.728137,49.414822],[20.736897,49.416681],[20.743119,49.415142],[20.746107,49.411643],[20.7431,49.40795],[20.742269,49.403833],[20.754809,49.402193],[20.758027,49.400395],[20.757725,49.398221],[20.748356,49.393907],[20.747534,49.391002],[20.749139,49.388883],[20.761363,49.384246],[20.757594,49.375281],[20.76143,49.371605],[20.764678,49.371008],[20.779975,49.375187],[20.785406,49.3744],[20.788349,49.371598],[20.781728,49.36628],[20.780959,49.36323],[20.782476,49.361031],[20.788697,49.360795],[20.798112,49.363262],[20.809318,49.359372],[20.810597,49.35507],[20.80688,49.353151],[20.804737,49.359506],[20.800706,49.360208],[20.797871,49.358704],[20.802218,49.355276],[20.801197,49.349577],[20.796187,49.344831],[20.79738,49.343172],[20.800319,49.342985],[20.80876,49.347643],[20.811836,49.347687],[20.81855,49.342795],[20.819404,49.339386],[20.825903,49.334404],[20.834399,49.335334],[20.83733,49.33402],[20.839916,49.335105],[20.843306,49.339744],[20.849907,49.34176],[20.854385,49.347281],[20.85973,49.348398],[20.865549,49.347484],[20.877063,49.336061],[20.882386,49.333097],[20.879638,49.322615],[20.872738,49.319789],[20.884187,49.319095],[20.887157,49.320271],[20.889709,49.323726],[20.897172,49.325355],[20.903575,49.323535],[20.907616,49.31958],[20.904119,49.318822],[20.903259,49.315917],[20.91024,49.311474],[20.91134,49.306266],[20.917347,49.304282],[20.923871,49.299469],[20.924084,49.295969],[20.937416,49.298263],[20.943422,49.301529],[20.949946,49.302114],[20.961874,49.306222],[20.963329,49.308746],[20.969607,49.309888],[20.986545,49.306621],[20.994138,49.31268],[20.994,49.315551],[20.988183,49.323233],[20.989065,49.328446],[20.996699,49.332897],[21.004069,49.333141],[21.008091,49.334852],[21.009107,49.337065],[21.006952,49.340167],[21.011312,49.347564],[21.016251,49.346899],[21.025071,49.353498],[21.026587,49.356491],[21.0337117,49.3584272],[21.0355536,49.3610335],[21.0425476,49.3648814],[21.0489285,49.3656484],[21.054447,49.3618332],[21.066206,49.3655316],[21.0753304,49.3593162],[21.0777397,49.3606243],[21.0789581,49.3639247],[21.0874812,49.3656863],[21.0941092,49.3650563],[21.1041047,49.3764011],[21.0942029,49.3830713],[21.0893952,49.3837847],[21.083385,49.388884],[21.0679564,49.3955159],[21.067227,49.397339],[21.069009,49.399858],[21.06723,49.402083],[21.054315,49.404219],[21.050041,49.410859],[21.050402,49.413305],[21.047591,49.415165],[21.047543,49.418339],[21.0564734,49.4216797],[21.0637265,49.4204774],[21.0726241,49.4249582],[21.0817845,49.4250173],[21.0963873,49.429488],[21.102473,49.426485],[21.113728,49.4239391],[21.1189377,49.4333156],[21.1240235,49.4365799],[21.1522517,49.4269582],[21.1553994,49.4243535],[21.1552287,49.4209919],[21.1647104,49.4183401],[21.1701016,49.4131594],[21.1794218,49.4090281],[21.1814074,49.4051489],[21.1800294,49.4021684],[21.1835504,49.402835],[21.1921278,49.4009926],[21.2018413,49.4046371],[21.2081942,49.402482],[21.2122994,49.4079558],[21.2272548,49.4169518],[21.22666,49.4214289],[21.2234581,49.4255179],[21.2320903,49.4330251],[21.2327486,49.4365452],[21.2341026,49.437508],[21.2406693,49.4341837],[21.2585653,49.446347],[21.2659192,49.4469846],[21.2673438,49.4571872],[21.2775246,49.4609398],[21.3071819,49.4479956],[21.3118581,49.4493783],[21.3165123,49.4479065],[21.3370856,49.4514246],[21.344684,49.4504234],[21.3519715,49.4448948],[21.3629107,49.4421674],[21.3684956,49.4391183],[21.3727513,49.4326443],[21.3822512,49.4346386],[21.3914912,49.4327086],[21.3933943,49.4345127],[21.4020172,49.4334177],[21.4047734,49.4317751],[21.4065337,49.4266209],[21.4340831,49.412284],[21.4473252,49.4125919],[21.4562309,49.4162993],[21.4670002,49.4132007],[21.4736964,49.4135854],[21.4796044,49.4163758],[21.4872739,49.4284635],[21.4926584,49.4294959],[21.4957048,49.4296084],[21.5111627,49.4197476],[21.5170484,49.4178027],[21.523541,49.419937],[21.5199096,49.4223895],[21.5187157,49.4253953],[21.5218035,49.4271329],[21.5240763,49.4316735],[21.5302734,49.4350836],[21.5520786,49.4331148],[21.5565912,49.4381213],[21.5639837,49.4412621],[21.575602,49.435406],[21.5905587,49.4338166],[21.5963941,49.4369568],[21.6018473,49.4353486],[21.6147752,49.4448182],[21.6309446,49.4473085],[21.6443012,49.4306508],[21.6494184,49.4301528],[21.6564726,49.4246388],[21.6564337,49.4205086],[21.6589052,49.4168007],[21.6744557,49.4143011],[21.681232,49.410805],[21.6993628,49.4185136],[21.7101935,49.4133804],[21.715174,49.414066],[21.7217713,49.4122839],[21.7237731,49.4100816],[21.7242957,49.4031129],[21.7268958,49.3981061],[21.7346556,49.3989566],[21.7405013,49.3925326],[21.763385,49.383467],[21.765149,49.37811],[21.762955,49.376993],[21.763032,49.374991],[21.766283,49.37009],[21.766244,49.367195],[21.777994,49.356048],[21.7892157,49.3554882],[21.788513,49.358242],[21.790838,49.360555],[21.7878417,49.3677174],[21.791762,49.3727322],[21.7951145,49.3739948],[21.796949,49.378462],[21.80206,49.380422],[21.802993,49.382176],[21.808517,49.38151],[21.8173796,49.3843405],[21.8258407,49.3907837],[21.8383186,49.3916729],[21.8407339,49.3912526],[21.8435185,49.3876243],[21.8473159,49.3866646],[21.8492802,49.3841035],[21.8479249,49.3781121],[21.8589987,49.3685554],[21.8707576,49.3732833],[21.875471,49.3736309],[21.8873284,49.3689768],[21.8909948,49.3643622],[21.8893232,49.3622601],[21.8918252,49.3586234],[21.9003663,49.3540891],[21.9037674,49.3499643],[21.9078851,49.3532751],[21.9180331,49.3541933],[21.934027,49.346115],[21.9448186,49.3486719],[21.949366,49.347756],[21.95239,49.35007],[21.961952,49.348548],[21.9660895,49.3451219],[21.9652742,49.3416858],[21.9753825,49.3300251],[21.9784582,49.3233233],[21.9785402,49.3169236],[21.9815775,49.3146334],[21.9831803,49.310366],[21.9888702,49.3085083],[21.9914853,49.3043054],[22.0007276,49.2993239],[22.0014514,49.2971677],[22.0106878,49.2895274],[22.023379,49.286135],[22.03402,49.278546],[22.0350041,49.2756363],[22.033326,49.265268],[22.030318,49.262671],[22.041885,49.257161],[22.038136,49.250161],[22.037518,49.247354],[22.0389694,49.2450188],[22.0333672,49.2417508],[22.0350573,49.2338231],[22.030419,49.22517],[22.0506766,49.2162936],[22.0600074,49.2144633],[22.0621528,49.2116131],[22.067642,49.212216],[22.0936306,49.2058511],[22.104888,49.205193],[22.1175657,49.2010467],[22.1244516,49.2021588],[22.1299788,49.2002288],[22.1438057,49.2005139],[22.143104,49.1927444],[22.1538328,49.1886156],[22.1600177,49.1881904],[22.1665467,49.1845056],[22.1759065,49.1831017],[22.1858297,49.1783177],[22.1878351,49.1744388],[22.1899038,49.1740178],[22.2049861,49.1797638],[22.2062922,49.1821149],[22.2099452,49.1826847],[22.2110273,49.1855553],[22.2172027,49.1838459],[22.222462,49.1844599],[22.230823,49.180473],[22.2322838,49.1764561],[22.234795,49.174618],[22.235799,49.170076],[22.2355366,49.168018],[22.2262507,49.161853],[22.226896,49.158718],[22.224595,49.153037],[22.225713,49.152541],[22.236061,49.154422],[22.239689,49.151889],[22.248492,49.153044],[22.281768,49.14208],[22.297225,49.141535],[22.306017,49.137009],[22.314432,49.136967],[22.31765,49.135551],[22.320531,49.135577],[22.3295624,49.1441186],[22.334605,49.146472],[22.362241,49.144513],[22.3661956,49.1469214],[22.3696677,49.1454653],[22.377934,49.136089],[22.378509,49.131893],[22.39023,49.127393],[22.3898333,49.1233611],[22.3918239,49.1180547],[22.3966366,49.1171143],[22.41247,49.102902],[22.422654,49.09949],[22.4284444,49.0984722],[22.4342778,49.1018611],[22.4560556,49.10375],[22.4671418,49.1006052],[22.477001,49.093353],[22.484808,49.091022],[22.4859555,49.088891],[22.498712,49.0857944],[22.503753,49.0901478],[22.5077302,49.0913941],[22.5394246,49.0946935],[22.5477766,49.090287],[22.5597599,49.0873231],[22.5678661,49.0886836],[22.5824777,49.0973238],[22.5998128,49.0934979],[22.6050313,49.0845121],[22.6132153,49.0841422],[22.6279086,49.0786642],[22.6311562,49.0757613],[22.6340017,49.0668843],[22.638019,49.0614507],[22.6459767,49.0577733],[22.6515706,49.0508224],[22.659887,49.0471126],[22.6692004,49.0476351],[22.6712612,49.0428133],[22.6817961,49.0389835],[22.686491,49.0397282],[22.6991089,49.0497001],[22.7178584,49.0527767],[22.7242914,49.0512494],[22.7274759,49.0482529],[22.7353886,49.0490301],[22.7440137,49.0453882],[22.7487024,49.0452546],[22.7520197,49.0427928],[22.7567248,49.04413],[22.7600872,49.047293],[22.7617671,49.0521094],[22.7642711,49.0532949],[22.7730502,49.0518137],[22.7862238,49.0464511],[22.8001386,49.0366403],[22.8095073,49.034644],[22.8097132,49.0310763],[22.8131892,49.0251418],[22.8243181,49.0227587],[22.8337495,49.0260768],[22.8395632,49.0198393],[22.8444529,49.0114168],[22.8439762,49.0049276],[22.847092,49.0023872],[22.8596669,49.0020468],[22.8917598,49.0081476],[22.8895283,49.0137038],[22.8939656,49.0178483],[22.8897626,49.0197657],[22.8864924,49.0194098],[22.8858389,49.0213364],[22.8801524,49.0234956],[22.8741062,49.0304895],[22.8744996,49.034003],[22.8813783,49.0383196],[22.8776419,49.0399966],[22.873682,49.0366849],[22.8731464,49.038516],[22.8666883,49.039859],[22.8711917,49.0458368],[22.8701913,49.0471551],[22.8757807,49.0513508],[22.874284,49.0522308],[22.8744685,49.055815],[22.870864,49.0556382],[22.8699356,49.0577196],[22.8709961,49.0584872],[22.8682648,49.0587053],[22.8692346,49.057677],[22.8677535,49.0574221],[22.866219,49.0603394],[22.868684,49.0624206],[22.8671014,49.0630365],[22.8673484,49.0653295],[22.8653481,49.0650791],[22.8645314,49.0667861],[22.8671274,49.0681078],[22.8656958,49.0688967],[22.8665744,49.0699351],[22.8718653,49.0718553],[22.866571,49.0746962],[22.8680131,49.0774093],[22.8835487,49.0811937],[22.8834602,49.0841296],[22.8812007,49.0827193],[22.8805768,49.0837739],[22.8860255,49.0859536],[22.8927565,49.094556],[22.8890832,49.0974497],[22.8844765,49.096662],[22.8856729,49.0988074],[22.8807328,49.0971186],[22.8794075,49.0986119],[22.8756939,49.0965583],[22.8703704,49.0995105],[22.8680201,49.0988398],[22.8668189,49.1006736],[22.862702,49.100061],[22.8601478,49.1025268],[22.8555115,49.1036751],[22.8548274,49.1059847],[22.8601621,49.1123145],[22.8542003,49.1110756],[22.8507123,49.1148727],[22.8423894,49.1102647],[22.8364141,49.1104423],[22.836242,49.1117184],[22.8380129,49.1119881],[22.8360178,49.1125381],[22.8312993,49.1109873],[22.8290253,49.1128847],[22.8288484,49.1168426],[22.8304841,49.117012],[22.8303823,49.1184437],[22.819991,49.122778],[22.8188876,49.126229],[22.8150322,49.1233422],[22.8121302,49.125044],[22.815875,49.1276626],[22.8164015,49.1297679],[22.813092,49.1305095],[22.8073579,49.1286605],[22.8076429,49.1327089],[22.8012826,49.133656],[22.7999595,49.1360312],[22.7931002,49.1382901],[22.7918147,49.1407279],[22.793866,49.1429316],[22.791914,49.145119],[22.7927299,49.146604],[22.7887976,49.1494274],[22.7923071,49.1547938],[22.7891975,49.1577275],[22.7847054,49.1575396],[22.7728915,49.1523865],[22.7744737,49.1557858],[22.7604472,49.152532],[22.7553981,49.1540001],[22.7511771,49.1528223],[22.7489434,49.1564159],[22.7391328,49.1579778],[22.7381752,49.1606839],[22.7413921,49.1646351],[22.7422447,49.1687911],[22.749088,49.1727811],[22.7496871,49.1765568],[22.7563066,49.1806923],[22.7561721,49.1826257],[22.7525166,49.1813422],[22.7499695,49.1840594],[22.7471039,49.1845471],[22.7430206,49.1827682],[22.740106,49.1837143],[22.7327165,49.1822679],[22.733581,49.1798995],[22.7301908,49.1755259],[22.7240254,49.1742029],[22.7250996,49.1685591],[22.7190041,49.164986],[22.7161988,49.1652887],[22.714569,49.1703127],[22.7072649,49.1749798],[22.7081596,49.180905],[22.7161708,49.1835646],[22.7202076,49.1887185],[22.7196139,49.1914188],[22.7227904,49.1960415],[22.7309111,49.1985824],[22.7289088,49.2006012],[22.7293136,49.2038681],[22.7347992,49.2070882],[22.733294,49.2093677],[22.7339598,49.2114432],[22.7404455,49.211726],[22.7476795,49.2156221],[22.7416283,49.2188698],[22.7365994,49.218417],[22.729253,49.2212326],[22.7200817,49.2211765],[22.7148875,49.2264901],[22.7166857,49.23579],[22.7213127,49.2413378],[22.7396304,49.2473455],[22.7441042,49.298829],[22.750946,49.3165998],[22.7431727,49.3358525],[22.7468489,49.3598976],[22.7324626,49.3985972],[22.7255367,49.4098272],[22.7128559,49.4375513],[22.7004437,49.488421],[22.6966855,49.495128],[22.6704141,49.497519],[22.6512378,49.5083715],[22.6408214,49.5299899],[22.6631648,49.538828],[22.6746896,49.549156],[22.6781651,49.5607048],[22.6847285,49.5717122],[22.69484,49.58198],[22.7494427,49.6312574],[22.7833142,49.6572404],[22.787224,49.6764621],[22.8055619,49.693402],[22.821923,49.6945322],[22.8477875,49.7100826],[22.8520982,49.720358],[22.8734299,49.7406314],[22.885127,49.7446331],[22.8967765,49.7517557],[22.8979443,49.76446],[22.9016035,49.7682569],[22.932817,49.7932905],[22.954414,49.8033079],[22.9619287,49.8047019],[22.9566696,49.8111286],[22.9706985,49.8386462],[22.9954723,49.8421548],[23.0332796,49.8813506],[23.0652278,49.908373],[23.0885044,49.9248503],[23.107489,49.9419599],[23.1149238,49.9565395],[23.1426354,49.9712214],[23.2130058,50.0311008],[23.2159873,50.0474664],[23.2393204,50.054451],[23.2646055,50.0788649],[23.2793285,50.0862897],[23.2800844,50.1005448],[23.2839138,50.0990398],[23.2968517,50.102905],[23.2985169,50.1070578],[23.3139516,50.1119628],[23.3421466,50.133614],[23.3803162,50.1593643],[23.4294452,50.1842048],[23.4701277,50.2178762],[23.5063175,50.23032],[23.5586881,50.2570166],[23.5810135,50.265997],[23.6115663,50.2992543],[23.6310441,50.3048038],[23.6388487,50.3205064],[23.6863263,50.3316353],[23.6912281,50.3468922],[23.6911387,50.3533295],[23.6966473,50.3661679],[23.7031117,50.3752858],[23.7087571,50.3792641],[23.7270286,50.3880008],[23.7788278,50.4010954],[23.8033635,50.4047644],[23.8839921,50.4082683],[23.9407699,50.4139098],[23.997543,50.4121407],[24.0058266,50.4353798],[24.0345288,50.444832],[24.0380071,50.4551186],[24.0701051,50.5033883],[24.0756439,50.5229287],[24.0913158,50.5620201],[24.0903441,50.5779311],[24.0986497,50.5995336],[24.0973974,50.6106092],[24.0918245,50.6164546],[24.0912272,50.6191235],[24.0981892,50.6374365],[24.0936026,50.6352312],[24.0885138,50.6373213],[24.088386,50.6351542],[24.0874036,50.6418811],[24.0851471,50.6432676],[24.0878256,50.6446932],[24.0800652,50.6448846],[24.08453,50.649563],[24.0891255,50.6506671],[24.0871132,50.6528856],[24.0904545,50.6538542],[24.0856948,50.6552469],[24.0882641,50.6574074],[24.0910631,50.6637306],[24.0854287,50.6613849],[24.0851061,50.6680989],[24.0867125,50.6691914],[24.0815271,50.6719362],[24.082074,50.6748367],[24.0793074,50.6746966],[24.0792001,50.6728326],[24.0770514,50.6756582],[24.07528,50.6759232],[24.0756696,50.6736007],[24.0737604,50.6760647],[24.0730864,50.6737186],[24.070322,50.6789204],[24.068,50.6774699],[24.0622882,50.6778592],[24.0650885,50.6804972],[24.0629522,50.6807058],[24.0633882,50.6849803],[24.0663524,50.6832572],[24.0695062,50.6838597],[24.0650908,50.6868036],[24.072409,50.6990036],[24.0696803,50.7015985],[24.0716106,50.7024696],[24.0699872,50.7052113],[24.0671125,50.7073735],[24.0735146,50.7079708],[24.0752618,50.7111092],[24.0714783,50.7120857],[24.0753315,50.7136004],[24.071219,50.7154399],[24.0731743,50.7177701],[24.0719723,50.7205579],[24.0668967,50.7201361],[24.0659921,50.7216501],[24.0644157,50.718387],[24.0608815,50.7206537],[24.0530947,50.7178082],[24.0499479,50.7190415],[24.0441795,50.7151901],[24.0424319,50.7176323],[24.023748,50.7251382],[24.0216506,50.7248947],[24.0223341,50.721772],[24.0166896,50.7229644],[24.0197466,50.73087],[24.015742,50.7298312],[24.0194929,50.7327621],[24.0206081,50.7377543],[24.0161503,50.7372405],[24.0202609,50.7455662],[24.0231434,50.7454987],[24.0199333,50.748656],[24.017675,50.7464453],[24.0153651,50.7473518],[24.0179403,50.751236],[24.0208183,50.7495569],[24.0236574,50.750864],[24.0172532,50.7519654],[24.0171969,50.7545546],[24.0132471,50.7534736],[24.0111459,50.7544848],[24.017791,50.7567272],[24.0123895,50.7570515],[24.0162085,50.7602348],[24.0140552,50.762108],[24.0207322,50.7616249],[24.0217427,50.7580046],[24.0249193,50.7587562],[24.0237094,50.7664726],[24.0113417,50.7720969],[23.9974835,50.7691913],[23.9808308,50.7712056],[23.9819795,50.7680241],[23.9781601,50.7684295],[23.976836,50.769461],[23.9784705,50.7733258],[23.9718987,50.7745475],[23.9720761,50.776991],[23.9688212,50.7749736],[23.9703835,50.7787029],[23.9661353,50.7780462],[23.9633526,50.7813445],[23.9682594,50.7857579],[23.9653264,50.7897003],[23.9604959,50.7911285],[23.9574523,50.7945291],[23.9634601,50.7989914],[23.9667703,50.8098158],[23.9689001,50.8116688],[23.9635228,50.8143751],[23.9704687,50.8159798],[23.9684149,50.8193874],[23.9744983,50.8170919],[23.9724992,50.8205286],[23.9752154,50.8223781],[23.9754412,50.8259991],[23.9774367,50.8270819],[23.9796733,50.8243021],[23.9803721,50.8278973],[23.983248,50.8265684],[23.9809743,50.8298467],[23.989623,50.8374434],[24.0069359,50.8411945],[24.0092641,50.8388425],[24.0192852,50.8387219],[24.0201281,50.841674],[24.0245363,50.8406253],[24.0269699,50.8380766],[24.0266808,50.8412539],[24.0299056,50.8411422],[24.0306012,50.840125],[24.0287624,50.8384163],[24.0324442,50.8357651],[24.0341451,50.8366867],[24.0344894,50.839552],[24.0473755,50.838084],[24.0398961,50.8364883],[24.0436713,50.833478],[24.0475904,50.8357528],[24.0525958,50.8362315],[24.0559354,50.8342243],[24.0608867,50.8354171],[24.0635876,50.8340871],[24.0646519,50.8362498],[24.0746208,50.8340192],[24.0769851,50.8354841],[24.0817297,50.8347277],[24.0805507,50.836682],[24.085396,50.8354051],[24.1001561,50.8359482],[24.1006126,50.8381686],[24.1072314,50.8386934],[24.115681,50.8416617],[24.1176974,50.8446874],[24.1239456,50.8450509],[24.1243716,50.8472429],[24.1320577,50.8490027],[24.1346057,50.85246],[24.1432845,50.8582135],[24.1455976,50.8693076],[24.138797,50.8692536],[24.1366709,50.8666958],[24.1258518,50.8683259],[24.122397,50.871854],[24.1164072,50.869903],[24.1158098,50.8729915],[24.1126386,50.8756624],[24.0995324,50.8767561],[24.0864963,50.8890707],[24.0828028,50.88703],[24.0800729,50.8895973],[24.0727126,50.8910806],[24.060335,50.8923665],[24.0554425,50.8906439],[24.0523451,50.8914141],[24.049934,50.8940597],[24.0513061,50.8970401],[24.0472024,50.9008054],[24.0394024,50.9034908],[24.0341157,50.9092495],[24.0241513,50.9162328],[24.0110232,50.9198131],[24.006118,50.9253546],[23.9973355,50.9283187],[23.9955417,50.9309019],[23.9958046,50.9340054],[23.9884184,50.9447656],[23.9820026,50.9462697],[23.9797367,50.948762],[23.9759506,50.9461738],[23.9745573,50.9494287],[23.9703809,50.9502985],[23.9681543,50.9565366],[23.9706861,50.9593198],[23.9674026,50.9675171],[23.9670247,50.9783308],[23.9567549,50.9907622],[23.9511097,50.9950223],[23.947709,50.9948337],[23.9386075,51.002964],[23.9293017,51.0060814],[23.92299,51.0054799],[23.9150801,51.0070511],[23.9185155,51.0093838],[23.9147642,51.0101856],[23.9156509,51.0123689],[23.92226,51.0096471],[23.9220385,51.0128046],[23.9255958,51.01255],[23.9258801,51.0149139],[23.9329063,51.0144417],[23.9346032,51.0128998],[23.9356556,51.0147039],[23.9300666,51.0172829],[23.9233253,51.0164448],[23.9236378,51.0188694],[23.92729,51.0200187],[23.9182472,51.0254343],[23.9212094,51.0270078],[23.915899,51.0284029],[23.9233672,51.0346039],[23.9315173,51.0380787],[23.9273019,51.0385246],[23.9213551,51.0366372],[23.9215124,51.0390008],[23.9159762,51.0396805],[23.9130177,51.0417602],[23.9199345,51.0465894],[23.9137037,51.0468142],[23.9160286,51.0487638],[23.9128972,51.0632475],[23.9087724,51.0642059],[23.9089714,51.0666524],[23.9125389,51.0699803],[23.9101745,51.0721475],[23.9110918,51.0745997],[23.9056906,51.0784322],[23.9032964,51.0740096],[23.8982004,51.0740957],[23.8962618,51.0767451],[23.8923458,51.0744917],[23.8899735,51.0790751],[23.8864321,51.0788247],[23.8850077,51.0821758],[23.8793187,51.0804623],[23.8795683,51.0774526],[23.8759258,51.0770683],[23.8765256,51.0789824],[23.8730085,51.0822415],[23.8705929,51.0904472],[23.8714204,51.0948801],[23.8678513,51.0934435],[23.8674383,51.0983377],[23.8642625,51.0993013],[23.8614643,51.0968554],[23.8568592,51.0999511],[23.8622009,51.1032601],[23.8576289,51.1072597],[23.8625652,51.1079527],[23.8588076,51.1084777],[23.856947,51.1105046],[23.8622973,51.112843],[23.8553145,51.1143108],[23.8572877,51.1181723],[23.8520613,51.1182307],[23.8531415,51.1222551],[23.8496118,51.1239729],[23.8535514,51.1263716],[23.8523527,51.127918],[23.8542126,51.1307888],[23.8555412,51.1301758],[23.8552834,51.1279063],[23.8602882,51.1311981],[23.8616393,51.1308067],[23.8616434,51.1275573],[23.8698362,51.1298932],[23.8686776,51.1356123],[23.8702815,51.1403914],[23.8678829,51.1420306],[23.8713836,51.1450768],[23.8654237,51.1475545],[23.8692694,51.1503124],[23.862399,51.1515859],[23.863238,51.1549988],[23.8605111,51.1578465],[23.8499491,51.155213],[23.848998,51.1572357],[23.8510461,51.1599893],[23.8419751,51.1606842],[23.8443576,51.1625341],[23.8429994,51.164299],[23.8414382,51.1642033],[23.8407494,51.1613649],[23.8381573,51.1594405],[23.8356379,51.163649],[23.8331619,51.1613382],[23.8292098,51.1621522],[23.8289449,51.160053],[23.827322,51.160638],[23.8270214,51.1629734],[23.8242301,51.1617483],[23.8215436,51.1663969],[23.8265377,51.1669818],[23.8142161,51.1707125],[23.8121138,51.1752485],[23.8141995,51.179009],[23.8081965,51.1850241],[23.8017665,51.1851641],[23.7971817,51.1876986],[23.7847969,51.1896877],[23.782162,51.1919914],[23.7839038,51.1934281],[23.7834427,51.1956887],[23.7803128,51.1965072],[23.7832089,51.1986717],[23.7759037,51.2003655],[23.7685569,51.1999591],[23.7666657,51.2023531],[23.7627647,51.2025078],[23.7643659,51.2045683],[23.7631293,51.2055659],[23.7604914,51.2028565],[23.7600057,51.2076937],[23.7560782,51.2095658],[23.7578704,51.2108296],[23.7565993,51.2123412],[23.7502555,51.2108219],[23.7464858,51.2128476],[23.7460058,51.2114692],[23.7422768,51.2148914],[23.7409873,51.2136613],[23.7423488,51.2121529],[23.7391885,51.2119678],[23.739309,51.2151888],[23.7359436,51.2196504],[23.7427549,51.2208362],[23.7429725,51.2244335],[23.741478,51.2273048],[23.7391729,51.2274717],[23.7403153,51.2288565],[23.7388645,51.2315985],[23.7265201,51.2364646],[23.7266473,51.2386429],[23.7312863,51.2386629],[23.7273562,51.2396482],[23.7260271,51.2417236],[23.7270398,51.2430229],[23.7297137,51.2416483],[23.7298927,51.2449408],[23.7272882,51.2444353],[23.7241542,51.2465256],[23.7256406,51.2508986],[23.7251638,51.2559496],[23.7232052,51.2583133],[23.7261067,51.2594644],[23.7233876,51.2605023],[23.7266273,51.2613533],[23.7225114,51.2613618],[23.7227144,51.2628523],[23.7199109,51.2634323],[23.7198087,51.2649142],[23.7174033,51.2642018],[23.7195893,51.2670403],[23.7177356,51.2682427],[23.7204955,51.2694579],[23.7172626,51.26973],[23.7165085,51.2714662],[23.7137633,51.269288],[23.7095051,51.273354],[23.7113688,51.2744647],[23.7105367,51.2756293],[23.7055139,51.2747569],[23.7054489,51.2759767],[23.709313,51.2774967],[23.7058715,51.2789449],[23.7036535,51.2819932],[23.7006167,51.2814937],[23.6972953,51.2832021],[23.6951748,51.2870811],[23.6968874,51.2889374],[23.6950112,51.2916376],[23.6939826,51.2910442],[23.6951642,51.2887701],[23.6922796,51.2866219],[23.6879467,51.2864376],[23.6843455,51.2884084],[23.6851254,51.2911131],[23.68163,51.2903555],[23.6808107,51.2918354],[23.6773818,51.2903941],[23.6778393,51.2924665],[23.6706889,51.2899742],[23.6683959,51.2906653],[23.6687741,51.2923561],[23.6630102,51.2923807],[23.6580958,51.2894801],[23.6573707,51.287168],[23.6531299,51.2890559],[23.6484099,51.2874239],[23.6494105,51.2901361],[23.6459748,51.2926589],[23.6502114,51.294289],[23.6468988,51.2983088],[23.6523392,51.2995854],[23.6409672,51.3067533],[23.6396238,51.3108168],[23.6434172,51.3105061],[23.6438715,51.3133785],[23.6355721,51.319357],[23.6373746,51.3232958],[23.6421839,51.3263891],[23.6368073,51.3267099],[23.6357728,51.3285152],[23.6453551,51.334445],[23.6474871,51.3397872],[23.6565308,51.3394094],[23.6575868,51.3422107],[23.6534321,51.3420912],[23.6498081,51.3439667],[23.6558684,51.3448344],[23.6535896,51.3468389],[23.6542033,51.3502714],[23.6583067,51.3513336],[23.6548673,51.3525895],[23.6564872,51.3542744],[23.6566947,51.3590916],[23.6631775,51.358076],[23.6632673,51.3597725],[23.6608773,51.3613256],[23.661988,51.3625757],[23.6667542,51.3602843],[23.6692032,51.3608867],[23.6651324,51.3650526],[23.6653177,51.3668242],[23.6681423,51.3678028],[23.6756429,51.3664708],[23.6781791,51.3689413],[23.6833866,51.3677343],[23.6865786,51.3686162],[23.6827075,51.3724173],[23.6843692,51.3781104],[23.6814899,51.3781982],[23.6801271,51.3759729],[23.6779517,51.3770324],[23.6811561,51.3814191],[23.6786209,51.383826],[23.6803177,51.384935],[23.6843682,51.3836579],[23.6848233,51.387018],[23.6891631,51.3882024],[23.68,51.3904423],[23.6768977,51.3940502],[23.6804181,51.3955415],[23.6866724,51.393828],[23.6869048,51.3957179],[23.6819048,51.3981106],[23.6860679,51.3997225],[23.6909735,51.3987022],[23.6969263,51.4029647],[23.702745,51.4035486],[23.7011386,51.4054145],[23.6970413,51.4059626],[23.6963279,51.4078848],[23.7021635,51.4116045],[23.6949872,51.4121524],[23.6927804,51.4145222],[23.7029331,51.4195452],[23.7008464,51.4208895],[23.6940692,51.4187524],[23.688727,51.4191156],[23.6845445,51.4264733],[23.6769879,51.4296733],[23.6785158,51.433441],[23.6857416,51.4338039],[23.6812555,51.4373864],[23.6858658,51.4422856],[23.6863263,51.4440176],[23.6846315,51.4452309],[23.6759227,51.4412122],[23.6677496,51.4454419],[23.6607789,51.4440773],[23.6494419,51.4462588],[23.6510603,51.4497244],[23.6487204,51.4509511],[23.650854,51.4537416],[23.6466917,51.4569603],[23.6467054,51.4591035],[23.6543941,51.4596816],[23.6600597,51.464768],[23.6650438,51.4666681],[23.6658285,51.4702108],[23.6678144,51.4712977],[23.6741368,51.4698702],[23.6763093,51.471005],[23.6750659,51.4734025],[23.6714412,51.4747842],[23.6698193,51.4830266],[23.6639145,51.4852053],[23.6631161,51.4881234],[23.6590117,51.4906706],[23.655234,51.4897643],[23.6517751,51.4859672],[23.6382372,51.485589],[23.6360891,51.4902849],[23.6302407,51.491374],[23.6268366,51.4946848],[23.6201303,51.4963662],[23.6196072,51.4977421],[23.6248265,51.5006399],[23.6164718,51.5030887],[23.6173328,51.5109392],[23.6244516,51.5127085],[23.6245698,51.5141983],[23.6140072,51.5225029],[23.6130202,51.5287975],[23.602663,51.5287364],[23.5936178,51.5356239],[23.588883,51.5336322],[23.5883417,51.53028],[23.5862818,51.5288036],[23.5771688,51.5324829],[23.5723532,51.5320019],[23.5646822,51.5347566],[23.5649478,51.5407477],[23.562466,51.5435548],[23.5655155,51.5503691],[23.5781047,51.557654],[23.5752642,51.559835],[23.5686623,51.5610899],[23.5676825,51.5636351],[23.568886,51.5675718],[23.5642144,51.5690539],[23.5640528,51.5709431],[23.5682107,51.5762034],[23.567561,51.5784961],[23.5641674,51.5813975],[23.5544622,51.5825933],[23.5533035,51.5848332],[23.554945,51.5888696],[23.5505354,51.5912226],[23.5488886,51.5980942],[23.5402411,51.6016062],[23.5445273,51.6054511],[23.5422206,51.6075001],[23.5429984,51.6114578],[23.5400426,51.6121307],[23.5447687,51.6163212],[23.5468715,51.6222664],[23.5427463,51.6259797],[23.5435431,51.631657],[23.5392219,51.6340148],[23.547864,51.6368881],[23.5486443,51.6413439],[23.5438245,51.6431669],[23.5419631,51.6457135],[23.5392632,51.6437313],[23.537159,51.6443309],[23.539828,51.6491352],[23.5440024,51.6515798],[23.5390816,51.656384],[23.5434987,51.6584669],[23.5443687,51.6614954],[23.5472988,51.6634919],[23.5552181,51.6632273],[23.5584879,51.66577],[23.5554916,51.6679217],[23.5522918,51.6749253],[23.5559611,51.681484],[23.551383,51.6823614],[23.5488027,51.6854944],[23.5557,51.6920184],[23.5560499,51.6966981],[23.5616259,51.6992377],[23.5585292,51.7016102],[23.5484985,51.7041733],[23.5566181,51.7073113],[23.5533263,51.7103152],[23.5485714,51.7093514],[23.5471799,51.7104338],[23.5531384,51.7160182],[23.5481957,51.7187814],[23.5471057,51.727278],[23.5433149,51.7269237],[23.543246,51.7229325],[23.5394566,51.7234894],[23.5368454,51.7220238],[23.5343458,51.7233827],[23.5347488,51.7282896],[23.5273158,51.7291555],[23.5326459,51.7371058],[23.530395,51.7426602],[23.5456771,51.748212],[23.5504195,51.7549518],[23.5585491,51.7588464],[23.5593553,51.7617511],[23.5623372,51.7610995],[23.5657262,51.7573645],[23.5760758,51.7570898],[23.5814121,51.7603358],[23.5873338,51.759118],[23.588317,51.7633049],[23.5949424,51.7671662],[23.5949877,51.7706561],[23.597726,51.77254],[23.6145327,51.7724171],[23.6167471,51.7739028],[23.6151721,51.77739],[23.6235213,51.7779861],[23.6266331,51.7804709],[23.6256796,51.7823238],[23.6283599,51.7826824],[23.6283373,51.7800695],[23.6313066,51.7800728],[23.6313329,51.7867904],[23.6280578,51.7905817],[23.6309099,51.7925413],[23.6378103,51.791763],[23.6375018,51.7936425],[23.6340561,51.7956332],[23.6413477,51.8000919],[23.6399616,51.8056438],[23.632935,51.811593],[23.628466,51.8189771],[23.621524,51.820887],[23.6244559,51.8261281],[23.6214589,51.830725],[23.617412,51.8316501],[23.602884,51.8303451],[23.6020901,51.8342231],[23.60871,51.8365751],[23.6093229,51.8387001],[23.6002301,51.8398601],[23.6013711,51.842108],[23.6074979,51.8428501],[23.61203,51.8453521],[23.612256,51.851664],[23.617491,51.856109],[23.6103329,51.8606891],[23.607078,51.8763211],[23.612232,51.87827],[23.6179731,51.8782401],[23.6249478,51.8741931],[23.630341,51.8734351],[23.631656,51.8752691],[23.6306689,51.877964],[23.622278,51.884859],[23.6235201,51.8869091],[23.636945,51.8918061],[23.638097,51.8937551],[23.631764,51.899724],[23.6183561,51.9034841],[23.617534,51.905375],[23.619858,51.907333],[23.6203701,51.910974],[23.6129869,51.916443],[23.612061,51.9187712],[23.6198629,51.9252],[23.630417,51.9219617],[23.630551,51.9288701],[23.632247,51.9313181],[23.6436861,51.9318111],[23.6456868,51.9337878],[23.645432,51.9388261],[23.6401971,51.9429461],[23.6415669,51.9476871],[23.640355,51.949663],[23.628148,51.9475581],[23.6266156,51.9487777],[23.6276982,51.9515975],[23.6414847,51.9540886],[23.6533901,51.9645135],[23.6695861,51.9648229],[23.6703677,51.9674455],[23.6671058,51.9711698],[23.6652342,51.9785374],[23.6855162,51.9862706],[23.6883548,51.9901036],[23.6888518,51.9937832],[23.683463,51.9982386],[23.6836423,52.0012264],[23.6761964,52.003105],[23.6656363,52.014903],[23.6570272,52.0188037],[23.6631775,52.0243297],[23.6604792,52.0298187],[23.6628047,52.0399352],[23.6580867,52.0424511],[23.653897,52.0546445],[23.6411639,52.0589602],[23.6442663,52.0611699],[23.6558899,52.0587313],[23.6538246,52.063075],[23.6468442,52.0629489],[23.6438935,52.0653543],[23.6501728,52.0681487],[23.6536998,52.0713578],[23.6536457,52.0731207],[23.6511565,52.0755218],[23.6480338,52.07486],[23.6432548,52.0771527],[23.6403714,52.0805329],[23.6402365,52.0855657],[23.6224841,52.0895813],[23.6174766,52.0919711],[23.6125414,52.0968306],[23.6104909,52.1002265],[23.611486,52.1031773],[23.6205947,52.1055695],[23.6179393,52.1093353],[23.6089925,52.1081599],[23.6041474,52.1139475],[23.5970128,52.1177975],[23.5870071,52.1171614],[23.5790469,52.1201502],[23.568054,52.1156966],[23.5613765,52.1196017],[23.5584909,52.1197269],[23.5556548,52.1176465],[23.5564067,52.1105354],[23.549395,52.1096225],[23.5470782,52.1119205],[23.548175,52.115887],[23.5427068,52.1200673],[23.5433611,52.1249062],[23.5419744,52.1279064],[23.5365114,52.1297798],[23.5331118,52.1329066],[23.5271713,52.1312407],[23.5210086,52.1332455],[23.5198149,52.137866],[23.5179527,52.1391576],[23.5135333,52.1377396],[23.5149923,52.1436186],[23.510317,52.1498209],[23.5059503,52.1509137],[23.5008032,52.1469623],[23.4893412,52.1507423],[23.4863314,52.1547152],[23.4890615,52.1610808],[23.485395,52.1650332],[23.4956026,52.1703489],[23.492755,52.1737637],[23.4930957,52.1754095],[23.4986494,52.1738332],[23.4976086,52.1715553],[23.49888,52.1707209],[23.5071718,52.1732829],[23.5058421,52.1763249],[23.5007152,52.179053],[23.4855736,52.1813504],[23.4713573,52.174319],[23.4670243,52.174156],[23.4619213,52.1768224],[23.4618623,52.1840656],[23.4581071,52.1847941],[23.4501088,52.1821946],[23.4450234,52.1830556],[23.4399624,52.1778906],[23.4311198,52.172771],[23.4242781,52.1722941],[23.4145388,52.1823519],[23.4102883,52.1819432],[23.4048073,52.1777187],[23.3985417,52.1784331],[23.397051,52.1874353],[23.4015799,52.1926152],[23.4001134,52.1943539],[23.3928371,52.1961657],[23.3966041,52.1988713],[23.3954671,52.2010743],[23.389545,52.2000722],[23.3876618,52.1970071],[23.3767755,52.1949099],[23.3712305,52.1965045],[23.3704487,52.2048399],[23.3659377,52.2080164],[23.3530732,52.2043641],[23.3516901,52.205698],[23.3547941,52.2091483],[23.3525457,52.2106725],[23.3447251,52.2099377],[23.3373925,52.2059571],[23.3263787,52.2107045],[23.3147319,52.208],[23.2982711,52.2121684],[23.2990625,52.2137058],[23.3065718,52.2161201],[23.307742,52.2190932],[23.3054449,52.2214588],[23.2948204,52.2210486],[23.2733791,52.2149316],[23.2675068,52.2148619],[23.2498085,52.2191497],[23.2362371,52.2201927],[23.2190107,52.2251612],[23.2036658,52.2265544],[23.2004598,52.2290306],[23.1941095,52.2395379],[23.1979034,52.2472026],[23.2015946,52.249783],[23.2056259,52.2572319],[23.1997276,52.2678315],[23.2001693,52.2704138],[23.2041871,52.2735605],[23.2040579,52.2764972],[23.1843733,52.2827235],[23.1783313,52.2831366],[23.2155789,52.329655],[23.2412889,52.3574188],[23.2779689,52.392829],[23.299877,52.4038132],[23.3102521,52.413985],[23.3122381,52.4250172],[23.356691,52.468946],[23.408147,52.5115173],[23.4357941,52.530016],[23.457879,52.540368],[23.4666281,52.549448],[23.540169,52.5802431],[23.587686,52.594106],[23.6414109,52.6074559],[23.7188528,52.6146599],[23.7303753,52.6087123],[23.7332582,52.6088518],[23.7340359,52.6067106],[23.7392768,52.611941],[23.7450483,52.6117837],[23.7503264,52.6143215],[23.7534315,52.6136125],[23.7612731,52.6160571],[23.7696707,52.6198404],[23.7719118,52.6225272],[23.7762161,52.6225271],[23.7809625,52.6272332],[23.8794089,52.679696],[23.892546,52.679697],[23.900084,52.691168],[23.9386401,52.7129159],[23.9395973,52.8131931],[23.9246069,52.8306753],[23.9236573,52.8549203],[23.9258216,52.8995712],[23.9197869,52.9045066],[23.9162434,52.9048149],[23.9164612,52.9388441],[23.9462763,52.9587295],[23.9311037,52.9762265],[23.9293711,52.9825438],[23.9333425,52.9884316],[23.925382,53.0246258],[23.9125652,53.0290875],[23.9100022,53.0328225],[23.9117673,53.0360974],[23.9160761,53.037488],[23.9164299,53.0399859],[23.9101327,53.0421959],[23.9112912,53.0445957],[23.9049289,53.0448005],[23.9058458,53.0464332],[23.9027874,53.048361],[23.8996904,53.0480742],[23.900737,53.0494748],[23.8983836,53.0500239],[23.9025996,53.0581567],[23.895946,53.0623645],[23.8880437,53.0632403],[23.8861673,53.0621822],[23.8860578,53.0643194],[23.8823025,53.0660594],[23.8812861,53.0728422],[23.8788075,53.0735031],[23.8816176,53.073961],[23.8771761,53.0753956],[23.8793661,53.0761993],[23.8779025,53.0775842],[23.8784737,53.0794398],[23.8741168,53.0789855],[23.871878,53.0840897],[23.874637,53.0848939],[23.8737914,53.0870155],[23.8758218,53.0877061],[23.8775488,53.0917493],[23.8806326,53.0912957],[23.8800768,53.0927523],[23.8828028,53.0935303],[23.8808148,53.094489],[23.882737,53.0958086],[23.8813115,53.0954933],[23.8825498,53.0975322],[23.8809332,53.0974772],[23.883275,53.0982222],[23.8821989,53.1012392],[23.8887731,53.1050228],[23.887778,53.1055115],[23.8890798,53.1068454],[23.8860412,53.1076841],[23.8884732,53.1089206],[23.8870234,53.1104938],[23.8890494,53.1118483],[23.8858738,53.1119408],[23.8853991,53.1143645],[23.8876198,53.1140177],[23.886866,53.1161618],[23.8896658,53.1168599],[23.8890084,53.1182932],[23.8935966,53.1247542],[23.8979315,53.1249768],[23.8938651,53.1263823],[23.8974235,53.127346],[23.8968118,53.1306733],[23.8980632,53.132203],[23.9003938,53.1315193],[23.9009798,53.1343911],[23.9022195,53.1335254],[23.9051537,53.1351976],[23.9042714,53.1372774],[23.9059433,53.1381759],[23.9072723,53.1367998],[23.912206,53.1378403],[23.9110432,53.1388416],[23.9119316,53.1401945],[23.9139025,53.1402422],[23.913519,53.1414685],[23.9157859,53.1429686],[23.9113589,53.1464085],[23.9122695,53.147002],[23.9097186,53.1499225],[23.9159611,53.1530378],[23.9145322,53.1551606],[23.9170714,53.1554765],[23.9182613,53.157623],[23.9138668,53.1573428],[23.9148108,53.1629404],[23.9102559,53.1638861],[23.9130066,53.1648685],[23.9122526,53.1666251],[23.9141139,53.1664749],[23.9093912,53.1672566],[23.9076811,53.1721862],[23.9043796,53.1748922],[23.9005718,53.1767003],[23.8947599,53.176685],[23.8915565,53.1787144],[23.8911836,53.181259],[23.8895169,53.1809489],[23.890402,53.1818353],[23.8878978,53.1814644],[23.8887828,53.1832728],[23.88275,53.1846244],[23.8791631,53.1875616],[23.8802047,53.1888234],[23.877156,53.1892021],[23.878858,53.1896634],[23.8735535,53.1912932],[23.8713772,53.1940736],[23.8700485,53.1932159],[23.8638757,53.1955352],[23.8652955,53.1964273],[23.8627431,53.1971396],[23.8632701,53.1999938],[23.8618483,53.2021881],[23.8639777,53.2035294],[23.8588608,53.2072448],[23.8572205,53.2103584],[23.8619609,53.2136603],[23.8610718,53.2146445],[23.8622964,53.2151482],[23.8590105,53.2162958],[23.8613098,53.217476],[23.861449,53.220937],[23.8553321,53.2318351],[23.8187503,53.2440242],[23.798979,53.2741881],[23.763442,53.3381597],[23.7371125,53.3915395],[23.7074099,53.4365462],[23.6672017,53.5126017],[23.659674,53.521365],[23.6516185,53.5441309],[23.6269053,53.5957339],[23.6044311,53.6581238],[23.5860331,53.7030861],[23.5856167,53.7283346],[23.5821063,53.743818],[23.5490369,53.7677742],[23.5447091,53.796233],[23.5462509,53.8258052],[23.5492795,53.8302908],[23.5536319,53.8300876],[23.5541215,53.8312208],[23.5478887,53.834686],[23.5496042,53.837475],[23.5512352,53.8373098],[23.5523541,53.8407883],[23.5451437,53.845041],[23.5457398,53.8478269],[23.5508929,53.8491858],[23.5520074,53.8510171],[23.5475476,53.8565044],[23.5423163,53.8567423],[23.540378,53.8583695],[23.5351115,53.8572522],[23.5282255,53.86067],[23.5282343,53.8622914],[23.5240636,53.8625882],[23.5245058,53.8645381],[23.5271269,53.8643583],[23.5258787,53.8666482],[23.5266837,53.8686245],[23.5242517,53.8721312],[23.5120542,53.9103439],[23.5115893,53.9158683],[23.514702,53.9564101],[23.5163655,53.957878],[23.5143622,53.9586925],[23.5152835,53.9602319],[23.5111994,53.9611429],[23.5127215,53.9622448],[23.5054766,53.9647817],[23.5073931,53.9661082],[23.5006099,53.9671347],[23.502109,53.9678378],[23.5007619,53.9689916],[23.4968692,53.9682586],[23.4953352,53.9695343],[23.4980882,53.9702018],[23.4982557,53.9717521],[23.4955133,53.97352],[23.4922451,53.9730443],[23.4891638,53.9746635],[23.4898286,53.9764599],[23.4880005,53.9764338],[23.489559,53.9772493],[23.4860419,53.9792806],[23.4892787,53.9827875],[23.4875878,53.9822038],[23.4847351,53.9854441],[23.4863186,53.9869349],[23.4844654,53.9875325],[23.4850028,53.9896449],[23.4822795,53.9893749],[23.4847575,53.9926419],[23.4806969,53.9980146],[23.481875,53.9998307],[23.4841995,53.9993482],[23.4913632,54.0030789],[23.4921389,54.0039923],[23.4905515,54.0052847],[23.4932367,54.0071001],[23.4978021,54.0061562],[23.4962735,54.0074415],[23.4975381,54.0084633],[23.5035802,54.0065337],[23.5008406,54.0077103],[23.5089745,54.0117966],[23.5132277,54.0179482],[23.5114514,54.0216948],[23.515541,54.0257831],[23.5161991,54.0285826],[23.5248783,54.03108],[23.5261214,54.0334843],[23.5232887,54.037696],[23.5273365,54.0473471],[23.5276404,54.053553],[23.525906,54.0568868],[23.5286013,54.0657804],[23.5183905,54.0786792],[23.518323,54.0897974],[23.5069624,54.0994962],[23.502023,54.1129355],[23.4964667,54.1130266],[23.4926162,54.1170069],[23.4953351,54.1325711],[23.4911678,54.1355531],[23.4858478,54.1532271],[23.4824512,54.1534568],[23.4733304,54.1580882],[23.4755206,54.1634164],[23.4612302,54.1677774],[23.4589947,54.1755371],[23.4244732,54.1775292],[23.4191583,54.1911199],[23.4063794,54.1963419],[23.4038393,54.2021939],[23.3979476,54.2072347],[23.3966631,54.2137464],[23.3942061,54.2168529],[23.3855548,54.2196271],[23.3867848,54.2248377],[23.3812844,54.2289353],[23.3617244,54.2310156],[23.3484112,54.2456804],[23.3375189,54.2517237],[23.2966129,54.2555281],[23.2887469,54.257055],[23.2817967,54.2606737],[23.2593374,54.2593678],[23.2488794,54.2568199],[23.2338841,54.2609102],[23.2237808,54.2719049],[23.2114788,54.2782023],[23.2055118,54.2833439],[23.2024213,54.2886259],[23.1764258,54.2908629],[23.1696166,54.2949532],[23.1542006,54.2970243],[23.1597575,54.3096044],[23.1487963,54.314355],[23.140399,54.3159499],[23.1070355,54.304143],[23.0996838,54.2991354],[23.0921693,54.2984537],[23.0421216,54.3159743],[23.0463607,54.3272207],[23.0509219,54.3335309],[23.0631646,54.3409585],[23.0581214,54.3453456],[23.0477001,54.3491877],[23.0093822,54.35572],[22.9939133,54.3618985],[23.0102148,54.3827959],[22.9847781,54.3845423],[22.9838462,54.3895741],[22.9649851,54.3905848],[22.9346864,54.3962121],[22.8981274,54.4004157],[22.8874989,54.3999432],[22.8879948,54.4090878],[22.8675664,54.4084589],[22.8546899,54.4104029],[22.8492338,54.407234],[22.8363023,54.406481],[22.8114262,54.3709779],[22.7920021,54.3633232],[22.680602,54.3602413],[22.6604428,54.3555508],[22.6415514,54.3537714],[22.6165489,54.3556823],[22.5963641,54.3535368],[22.5713438,54.3538668],[22.5280806,54.3491896],[22.4469125,54.348682],[22.4344622,54.3462687],[22.4217866,54.3484562],[22.3825145,54.3446832],[22.3307594,54.3433085],[22.3292505,54.3445398],[22.319768,54.3429377],[22.3187785,54.3405173],[22.2388078,54.3417321],[22.2319748,54.3402794],[22.2292421,54.3404989],[22.2257052,54.3437715],[22.1794752,54.337202],[22.0101893,54.3362229],[21.9696815,54.3327126],[21.9134602,54.3337111],[21.8505782,54.3312778],[21.7971082,54.3317947],[21.6767161,54.326801],[21.6349184,54.3274136],[21.5774137,54.3255464],[21.5735682,54.325361],[21.5701912,54.322015],[21.5532207,54.3228588],[21.5528218,54.3252092],[21.5287523,54.3254213],[21.4958243,54.3239737],[21.4461125,54.3182154],[21.4370282,54.3261665],[21.4336849,54.3268998],[21.4143,54.3262173],[21.3702892,54.3312869],[21.3238632,54.3293566],[21.3028467,54.3335395],[21.2743969,54.3283872],[21.2612908,54.3292006],[21.1967602,54.3377825],[21.1641161,54.3372958],[21.143218,54.3425504],[21.0988294,54.3467434],[21.0380882,54.3485912],[21.0066869,54.3536226],[20.9581598,54.3546416],[20.95134,54.3571288],[20.9259631,54.3564314],[20.8484748,54.36069],[20.8184351,54.3600119],[20.7408367,54.3692785],[20.7174867,54.3692275],[20.6894047,54.3722607],[20.6481087,54.3711832],[20.6310714,54.3663108],[20.6168789,54.3725557],[20.5839622,54.3780224],[20.5359368,54.3808893],[20.5151433,54.380605],[20.5055081,54.382713],[20.4384683,54.3879348],[20.403366,54.392865],[20.3610601,54.3958584],[20.3320253,54.401148],[20.2209866,54.4087575],[20.0691071,54.4221479],[20.0074091,54.4247418],[19.8114575,54.442311],[19.6469351,54.4533945],[19.4041722,54.6039],[19.0840444,54.7587028],[19.0404806,54.7879361],[18.9553861,54.8346528],[18.8466333,54.8796973],[18.6579056,54.9441361],[18.6219389,54.9608195],[18.5823472,54.9748167],[18.548925,54.9911889],[18.5224556,55.0019945],[18.4878806,55.0131917],[18.4471028,55.0231056],[18.4090556,55.029625],[18.3735417,55.0333417],[18.3026333,55.03605],[18.2276389,55.0336861],[18.0722444,55.0348056],[17.938,55.0312056],[17.8403167,55.022475],[17.7409,55.0055945],[17.6558833,54.994825],[17.5748583,54.9766806],[17.5439472,54.9719028],[17.4772833,54.9652084],[17.4080972,54.9547917],[17.3360778,54.9509723],[17.2775528,54.9449361],[17.1495278,54.9237111],[17.1156111,54.9167556],[17.0721028,54.904425],[16.9952722,54.8777084],[16.9212694,54.8569945],[16.8584778,54.8372195],[16.8320889,54.8264334],[16.8075778,54.8142639],[16.7851556,54.800825],[16.7631306,54.7851167],[16.7300389,54.7790167],[16.6940861,54.7698528],[16.6278389,54.7666111],[16.4942528,54.7481973],[16.391025,54.7261195],[16.3622222,54.7177278],[16.327525,54.7051945],[16.2937639,54.6898111],[16.2376056,54.6588611],[16.1755194,54.6207528],[16.1516194,54.6032167],[16.1300389,54.5835417],[16.1073083,54.5689861],[16.0881139,54.5540195],[16.0714222,54.538075],[16.0479333,54.5112195],[16.019,54.4912306],[15.9763972,54.4654667],[15.9432278,54.4527306],[15.9079306,54.4480639],[15.8077556,54.4406556],[15.7581694,54.43405],[15.6889083,54.42],[15.624675,54.4025473],[15.585825,54.3945389],[15.5557639,54.390375],[15.5107417,54.3891473],[15.4687667,54.3848028],[15.4214389,54.3759139],[15.3768444,54.3630973],[15.213275,54.3437278],[15.1756361,54.3376723],[15.1426583,54.3300139],[15.1096528,54.3198417],[14.9873972,54.2912139],[14.920975,54.2781306],[14.8256722,54.2535278],[14.6001028,54.2098584],[14.564875,54.2001695],[14.5297611,54.1874389],[14.4567222,54.1713167],[14.4050833,54.1565778],[14.3731861,54.1498528],[14.2789083,54.1253639],[14.2374583,54.1257778],[14.1991222,54.2505917],[14.1653111,54.2639556],[14.1564222,54.3017306],[14.1059333,54.3178528],[14.1125306,54.4405084],[14.0782917,54.4411306],[14.0696389,54.2776417]]]}}]}
